{"type": "FeatureCollection", "features": [{"type": "Feature", "geometry": {"type": "MultiPolygon", "coordinates": [[[[-89.1257602302965, 42.28706283769731], [-89.12575822974837, 42.28752883695849], [-89.12575623009856, 42.28826083838082], [-89.1246682301523, 42.28826883751778], [-89.12459623018228, 42.28826883818233], [-89.12438122919879, 42.288270837800276], [-89.124310229952, 42.28827183727696], [-89.12401822987395, 42.28827283808271], [-89.12314423018796, 42.28827983774163], [-89.1228532299348, 42.28828283750027], [-89.12244722915563, 42.28828583858785], [-89.12157922931739, 42.28829283758078], [-89.12123222988608, 42.28829483786251], [-89.12082722893182, 42.288298838425774], [-89.120341228685, 42.288301837518965], [-89.11905522837202, 42.28831283773703], [-89.11888622741931, 42.288313837877595], [-89.11840122879404, 42.28831783843966], [-89.11816922809214, 42.28831883791558], [-89.11747522833119, 42.28832483809356], [-89.11724422835252, 42.288326838374275], [-89.11701022710247, 42.28832783851462], [-89.11630922766881, 42.28833383802717], [-89.11607622804031, 42.2883358383076], [-89.11583222764283, 42.2883368384478], [-89.11510422754668, 42.28834283795951], [-89.11486122697414, 42.28834483823966], [-89.11461822729989, 42.28834583837971], [-89.11388922648052, 42.288351838555116], [-89.1136472266312, 42.28835383883497], [-89.1132892273292, 42.288355838450215], [-89.11221522583003, 42.28836483837941], [-89.11185822545464, 42.28836783879856], [-89.11156722609984, 42.28836883893823], [-89.11069722571348, 42.28837583858647], [-89.11040722528526, 42.28837883900509], [-89.11011422538229, 42.288379838480054], [-89.10923622549831, 42.288386838791624], [-89.10918922564265, 42.288387838931], [-89.10894422542026, 42.28838983854517], [-89.10843022558437, 42.288393839102405], [-89.10715322549224, 42.28840383916529], [-89.1068912246531, 42.28840583877896], [-89.10637822554041, 42.28840983933517], [-89.10622622430614, 42.28840983867063], [-89.1057722247447, 42.28841383922661], [-89.10562122423364, 42.28841583883993], [-89.10559122499473, 42.28837883900509], [-89.10548222431648, 42.28823483935116], [-89.10548122449156, 42.28823283840299], [-89.1054352244608, 42.288143838343316], [-89.1054072239734, 42.28811683845716], [-89.1053992244758, 42.28808183873518], [-89.10535222462013, 42.28802683941758], [-89.10529122452076, 42.28791783879155], [-89.10516622394898, 42.2876908389431], [-89.10514122473295, 42.287649839407294], [-89.10507722426053, 42.28753983864064], [-89.10506422474003, 42.287505838751464], [-89.10503622425263, 42.287471838843935], [-89.10503022350655, 42.2874538387291], [-89.1050272240318, 42.28744383917995], [-89.10499922444271, 42.28740983923896], [-89.10493022394742, 42.28726183873476], [-89.10492522482288, 42.28725183915514], [-89.10489722433547, 42.28722483888665], [-89.10478022326129, 42.28698183927237], [-89.10475822441829, 42.28693583912774], [-89.10472922500428, 42.28691583853429], [-89.10462822382364, 42.286692839063235], [-89.10461822377789, 42.286668839055224], [-89.10453022391435, 42.28649983857384], [-89.10436822353265, 42.28618883830417], [-89.10369822316281, 42.28480283868617], [-89.10360622310131, 42.28458983838508], [-89.10356822346647, 42.28454183808676], [-89.10333622366288, 42.284089838911406], [-89.10331822322121, 42.284027838636334], [-89.10329022363213, 42.28400783778425], [-89.10324422270305, 42.28391083871212], [-89.10320322269517, 42.28383483795761], [-89.10313722347126, 42.28371183772279], [-89.103118224103, 42.28355083834932], [-89.10314122366921, 42.283505837910106], [-89.10312222340264, 42.28334883822324], [-89.10314022294598, 42.283293838761075], [-89.10328722325907, 42.28316883835484], [-89.10334222261235, 42.28311383807094], [-89.10336122287892, 42.282970838570236], [-89.10335222265809, 42.28288083816035], [-89.1033382233127, 42.28280683794856], [-89.1033322225666, 42.282777837976575], [-89.10330422297751, 42.282702838078784], [-89.10321322363924, 42.282599838268624], [-89.1031982226723, 42.282527838191655], [-89.1031842233269, 42.28250383859078], [-89.10309522363845, 42.281991837616985], [-89.10307622247358, 42.2816688380621], [-89.10312622270229, 42.28156983755219], [-89.10314722261869, 42.28149183746382], [-89.10325522257371, 42.281239838052116], [-89.10328222323622, 42.281170837847554], [-89.10487022277466, 42.28115483710543], [-89.1050202234608, 42.281152837926236], [-89.10547322319732, 42.28114783731949], [-89.10562422370838, 42.28114683772979], [-89.10576522327537, 42.2811448372211], [-89.10618722394807, 42.28114083753276], [-89.1063292242383, 42.28113983727833], [-89.10661922466653, 42.28113683784418], [-89.10748822432967, 42.28112983805622], [-89.1077792245828, 42.28112783821162], [-89.10947922517256, 42.2811138373037], [-89.10981822420797, 42.28111083786831], [-89.11083822438215, 42.281102837157825], [-89.11109922539637, 42.28110083731237], [-89.111179224864, 42.28110083731237], [-89.1113062250856, 42.281098836802215], [-89.11168722485212, 42.28109483711096], [-89.11181522489865, 42.28109483711096], [-89.11191722500588, 42.281093836855796], [-89.11222522587576, 42.28109083675484], [-89.11232822580793, 42.281090837419455], [-89.11254522554292, 42.281089837164224], [-89.1125932261218, 42.281088837573606], [-89.11338922599002, 42.28108183711571], [-89.11365522612878, 42.28108083686033], [-89.11484222580924, 42.28107083762887], [-89.11606122617508, 42.281060837731204], [-89.11629322597867, 42.281058837219774], [-89.1169922266608, 42.28105183675854], [-89.11722522718762, 42.28105083716732], [-89.11745822681613, 42.28104883665558], [-89.11815622677504, 42.281042837113844], [-89.11839022712677, 42.28104183685786], [-89.11863122715118, 42.28103983701045], [-89.11935422722446, 42.281032837211725], [-89.11959622797211, 42.281031836955584], [-89.11984022747127, 42.28102983710786], [-89.12057222776536, 42.28102383689969], [-89.12081622816284, 42.2810218363871], [-89.12105822801219, 42.28101983653905], [-89.12178422756018, 42.28101383632994], [-89.12202622920614, 42.28101183648165], [-89.12227022780698, 42.281009836633295], [-89.12300222899941, 42.281002836831235], [-89.12324722832346, 42.2810018365746], [-89.12349922911686, 42.28099983606132], [-89.124256228627, 42.28099283625814], [-89.12450922924532, 42.28099183666599], [-89.1247622289653, 42.280989836817], [-89.1255212299219, 42.280982836348095], [-89.12577522946681, 42.28098183675578], [-89.12577522946681, 42.28102683633922], [-89.12577422874358, 42.28118183665231], [-89.12577222999207, 42.28178483592405], [-89.12577222909376, 42.28198583683581], [-89.12577122926884, 42.28218583686852], [-89.12577023034225, 42.28278583714515], [-89.12577022944394, 42.28298683685737], [-89.12576922961901, 42.28318683703562], [-89.12576722996918, 42.28378983705666], [-89.12576722996918, 42.283991837098], [-89.12576722996918, 42.28404683661544], [-89.12576722907087, 42.284211837538], [-89.12576722996918, 42.28426783706818], [-89.1257662301443, 42.28446483656263], [-89.12576423049447, 42.28505483713893], [-89.12576423049447, 42.28525283701996], [-89.12576222994633, 42.28616183691552], [-89.1257602302965, 42.286750837383416], [-89.1257602302965, 42.28706283769731]]]]}, "properties": {"tract": "003200", "geoid": "17201003200", "rural": "N"}}, {"type": "Feature", "geometry": {"type": "MultiPolygon", "coordinates": [[[[-89.12702019999999, 42.270581799999995], [-89.1282502, 42.270571800000006], [-89.12825019968044, 42.27057183483311], [-89.12800322833954, 42.270573834774424], [-89.12726622892087, 42.27057983464814], [-89.12702022887358, 42.27058183416278], [-89.12699121877105, 42.270581542675004], [-89.12702019999999, 42.270581799999995]]], [[[-89.12947819999998, 42.2691468], [-89.1271392, 42.269161800000006], [-89.1271492, 42.2696978], [-89.12610819999999, 42.2697088], [-89.1261042, 42.26976380000001], [-89.1261192, 42.2705738], [-89.12639055125739, 42.270576209334244], [-89.1262272284801, 42.270574834531836], [-89.12602922811338, 42.270573834774424], [-89.12599722922465, 42.27057283501699], [-89.12590422843992, 42.27057283435225], [-89.12587322847779, 42.27057283435225], [-89.12585922823406, 42.270571834594804], [-89.12581722750296, 42.27057183525953], [-89.12580322905589, 42.27057183525953], [-89.12580222833267, 42.27073383431385], [-89.12580122760944, 42.2712238346145], [-89.12580122850775, 42.271386835061264], [-89.12579822903304, 42.27247483488018], [-89.12579622848487, 42.27301883572327], [-89.12579522865998, 42.273563835569206], [-89.12579522865998, 42.273682835511224], [-89.12579322901014, 42.2741088353553], [-89.12579222918522, 42.274645835545144], [-89.12579122846202, 42.274861835296605], [-89.12579022953541, 42.27519283531334], [-89.1257892288122, 42.27551283512864], [-89.1257892288122, 42.27572983490762], [-89.12578822898728, 42.275910835759845], [-89.12578822988559, 42.27619383557309], [-89.12578722916237, 42.276453835197366], [-89.12578722916237, 42.276634835964174], [-89.12578622933745, 42.2768528355256], [-89.12578522861423, 42.277112835754366], [-89.12578422878931, 42.27750783597916], [-89.12578422878931, 42.27772683615252], [-89.12578322986273, 42.27792083590709], [-89.1257812293146, 42.278502836239895], [-89.12578122841627, 42.278697835892636], [-89.12578022859135, 42.278925836531236], [-89.12577822894153, 42.27961083643453], [-89.12577822894153, 42.27983983670327], [-89.12577822894153, 42.27988483643767], [-89.12577722911664, 42.28006783586832], [-89.12577522946681, 42.28075283664963], [-89.12577522946681, 42.280936836475576], [-89.12577522946681, 42.28098183675578], [-89.1255212299219, 42.280982836348095], [-89.1247622289653, 42.280989836817], [-89.12450922924532, 42.28099183666599], [-89.124256228627, 42.28099283625814], [-89.12349922911686, 42.28099983606132], [-89.12324722832346, 42.2810018365746], [-89.12300222899941, 42.281002836831235], [-89.12227022780698, 42.281009836633295], [-89.12202622920614, 42.28101183648165], [-89.12178422756018, 42.28101383632994], [-89.12105822801219, 42.28101983653905], [-89.12081622816284, 42.2810218363871], [-89.12057222776536, 42.28102383689969], [-89.11984022747127, 42.28102983710786], [-89.11959622797211, 42.281031836955584], [-89.11935422722446, 42.281032837211725], [-89.11863122715118, 42.28103983701045], [-89.11839022712677, 42.28104183685786], [-89.11815622677504, 42.281042837113844], [-89.11745822681613, 42.28104883665558], [-89.11722522718762, 42.28105083716732], [-89.1169922266608, 42.28105183675854], [-89.11629322597867, 42.281058837219774], [-89.11606122617508, 42.281060837731204], [-89.11484222580924, 42.28107083762887], [-89.11365522612878, 42.28108083686033], [-89.11338922599002, 42.28108183711571], [-89.1125932261218, 42.281088837573606], [-89.11254522554292, 42.281089837164224], [-89.11232822580793, 42.281090837419455], [-89.11222522587576, 42.28109083675484], [-89.11191722500588, 42.281093836855796], [-89.11181522489865, 42.28109483711096], [-89.11168722485212, 42.28109483711096], [-89.1113062250856, 42.281098836802215], [-89.111179224864, 42.28110083731237], [-89.11109922539637, 42.28110083731237], [-89.11083822438215, 42.281102837157825], [-89.10981822420797, 42.28111083786831], [-89.10947922517256, 42.2811138373037], [-89.1096092248689, 42.27927883740552], [-89.10940822412914, 42.27926483675139], [-89.10953722489889, 42.27803483740286], [-89.1096522236283, 42.27693483665943], [-89.10967522499115, 42.276716836717], [-89.10971022425292, 42.27638683639378], [-89.10974422458813, 42.276062836353006], [-89.10976722415434, 42.275844836717475], [-89.10923822335151, 42.275816836538894], [-89.10925522486657, 42.27563583674606], [-89.10928122390753, 42.275366836615035], [-89.10930622402189, 42.27509583662912], [-89.10932322463864, 42.27491583644817], [-89.10934322473013, 42.27469783616842], [-89.10937422379394, 42.27437083632898], [-89.10940422393118, 42.274046835894055], [-89.10942522384758, 42.27383083600815], [-89.10944522393905, 42.27361383567276], [-89.10947722462441, 42.27328983666383], [-89.10950722296502, 42.27296383655031], [-89.10952822467806, 42.27274783561159], [-89.10954822387122, 42.272530836200374], [-89.10957922293504, 42.272206835612366], [-89.1096092239706, 42.271881836281025], [-89.10963022388698, 42.271665835622535], [-89.10965622382626, 42.27138283608301], [-89.10973622329388, 42.270536835762044], [-89.10976322305807, 42.270254835569105], [-89.10982522388066, 42.269570835446494], [-89.1098082232639, 42.26941783537414], [-89.10980422396426, 42.269398835643365], [-89.10977022362906, 42.269240835596136], [-89.10971322372767, 42.26908783538754], [-89.10967622301942, 42.26901283514964], [-89.10949122307149, 42.26871683577711], [-89.10941722255332, 42.26862983498083], [-89.10938222329155, 42.268589835460766], [-89.10943622371823, 42.26858283560862], [-89.10959822409993, 42.26856183538276], [-89.1096522236283, 42.26855483552752], [-89.11012322380648, 42.26849683508253], [-89.11089922358319, 42.26840183564812], [-89.11154222418885, 42.26834983514835], [-89.11201622474009, 42.26831283549531], [-89.11267922453891, 42.268297835270445], [-89.11268822475975, 42.26829783460569], [-89.11346322471154, 42.26819883502637], [-89.113931225415, 42.26813883466176], [-89.11465122511522, 42.26802983486151], [-89.11530722524134, 42.267931834660644], [-89.11451222519806, 42.2676278351032], [-89.11479222558053, 42.26758683514254], [-89.11563122510644, 42.267466834520725], [-89.11591222441552, 42.2674278347348], [-89.116163225384, 42.26781483476396], [-89.11732222547538, 42.26763783447343], [-89.11787422494609, 42.26756583458488], [-89.1189282263538, 42.26742883454211], [-89.12020722609576, 42.26728083430207], [-89.1212362264908, 42.267135834480044], [-89.1230182270963, 42.266887834758684], [-89.12473222792977, 42.266649833588666], [-89.12483922716157, 42.26663583411752], [-89.12516222810008, 42.26659283453535], [-89.1252702280551, 42.26657983420756], [-89.1253332278043, 42.26657083449042], [-89.12552522832324, 42.26654383400176], [-89.12558922789734, 42.266535834765726], [-89.12594281104813, 42.266492879858], [-89.1264052, 42.26651579999999], [-89.1294987475241, 42.266099170106955], [-89.12949722906497, 42.266213834259524], [-89.12949522941516, 42.266668834148014], [-89.12949422869193, 42.26682083376324], [-89.12949022849396, 42.26728583467968], [-89.12948122917143, 42.268680834132674], [-89.12947822879839, 42.26914683440405], [-89.1294781926791, 42.26914777368003], [-89.12947819999998, 42.2691468]]], [[[-89.1293422, 42.269820800000005], [-89.1293462, 42.269413799999995], [-89.1293522, 42.2692818], [-89.1294772, 42.2692798], [-89.12947722897349, 42.26927594653051], [-89.12947722897349, 42.26927983492516], [-89.12947522932366, 42.269535834728444], [-89.12947324309796, 42.269819914573695], [-89.1293422, 42.269820800000005]]]]}, "properties": {"tract": "002500", "geoid": "17201002500", "rural": "N"}}, {"type": "Feature", "geometry": {"type": "MultiPolygon", "coordinates": [[[[-89.09207521994227, 42.278420837811076], [-89.09207821941699, 42.27841783824749], [-89.09231221887042, 42.27823583764876], [-89.09250521921426, 42.27808383764425], [-89.0930852191724, 42.277630837690744], [-89.09323422003362, 42.277514838163455], [-89.0932672196456, 42.277468837753176], [-89.0933812194484, 42.277312837296606], [-89.09372621922991, 42.27684783723627], [-89.09384121975594, 42.27669283756145], [-89.09389221980958, 42.27662283736893], [-89.09404621979535, 42.27641483764845], [-89.0940982196739, 42.276345838142355], [-89.09415321992547, 42.27626983756822], [-89.09432221997989, 42.276042837625255], [-89.09437822005637, 42.27596783702226], [-89.09449522023223, 42.2758078368112], [-89.09485021916117, 42.275328837410804], [-89.09496822006025, 42.275169837256], [-89.09522521997819, 42.27527383693026], [-89.09560621974472, 42.27542883743644], [-89.09599922010511, 42.275588837280374], [-89.09625721984797, 42.27569383726876], [-89.09639822031326, 42.27550183799307], [-89.09661122074861, 42.275213837318084], [-89.0968212208109, 42.2749278366978], [-89.0969632202028, 42.27473683677389], [-89.09710422066811, 42.274543836882266], [-89.09752922081555, 42.2739678367602], [-89.09767122020746, 42.27377583687907], [-89.09781122084786, 42.27358383641303], [-89.09812522066721, 42.273159836441444], [-89.09823422134546, 42.273010837308895], [-89.09837522091246, 42.27282083661482], [-89.09849222108834, 42.27266183677975], [-89.0988422208927, 42.27218583659387], [-89.09896022089347, 42.272027836220694], [-89.09910122046047, 42.271835837076814], [-89.0995242209581, 42.271260836547256], [-89.09966622034999, 42.271069836145976], [-89.0998062209904, 42.27087883649538], [-89.10022822076479, 42.27030583672991], [-89.10036922033179, 42.270115835858405], [-89.10051022079709, 42.269923836208214], [-89.10093322039639, 42.269349835961386], [-89.10107522068661, 42.269158835752094], [-89.10114722155495, 42.269060835976916], [-89.10136322146501, 42.26876583595115], [-89.10143622036163, 42.26866883535263], [-89.10145822100127, 42.26863783594539], [-89.10152522094842, 42.26854583542758], [-89.10154822141294, 42.26851583574994], [-89.10165622046965, 42.26836983565246], [-89.10165622046965, 42.26836783606766], [-89.10180522133089, 42.268167835388006], [-89.10198322070782, 42.26792583519962], [-89.10209222138607, 42.26777883592818], [-89.10217322067861, 42.26766783523369], [-89.102418220901, 42.2673348353013], [-89.10250022091675, 42.26722483562984], [-89.10254022109973, 42.267231834968015], [-89.10266022164865, 42.26725483525711], [-89.1027012207582, 42.26726283506666], [-89.10270922205245, 42.26728183544126], [-89.10277122197672, 42.26745783559499], [-89.10278422059889, 42.267493835943604], [-89.10281222108628, 42.26752783599546], [-89.10283022152797, 42.26757583529448], [-89.10289522092698, 42.26769983625047], [-89.10294122095772, 42.26774683561627], [-89.10294222168096, 42.26776783544887], [-89.10298722098847, 42.267809835757845], [-89.1030162221991, 42.26787083557114], [-89.10303522156737, 42.268002836327256], [-89.1030442217882, 42.268062836156545], [-89.10305722130869, 42.26809383584655], [-89.10308822127082, 42.26820283553614], [-89.10310922208554, 42.26827583582054], [-89.10313722167463, 42.26835383564853], [-89.10315622104287, 42.268405835480245], [-89.10329522096005, 42.268721836040804], [-89.10332322144745, 42.26874883626137], [-89.10333922223928, 42.26878583632326], [-89.10334122188911, 42.26878983613102], [-89.10336922147822, 42.268824835269044], [-89.10340622218644, 42.268885836094405], [-89.10343422177554, 42.26891383602848], [-89.1035372217077, 42.268921835627516], [-89.1038472222274, 42.26894883642716], [-89.10395122198449, 42.268957835804805], [-89.1046422222707, 42.26901783605461], [-89.10533122200879, 42.269035835453664], [-89.10579722216411, 42.26901883517195], [-89.10595322269805, 42.269015835160864], [-89.10630122285258, 42.26899383596154], [-89.10663922296139, 42.26896183560165], [-89.10777922278616, 42.268809835166024], [-89.10850922343046, 42.26871283529996], [-89.10938222329155, 42.268589835460766], [-89.10941722255332, 42.26862983498083], [-89.10949122307149, 42.26871683577711], [-89.10967622301942, 42.26901283514964], [-89.10971322372767, 42.26908783538754], [-89.10977022362906, 42.269240835596136], [-89.10980422396426, 42.269398835643365], [-89.1098082232639, 42.26941783537414], [-89.10982522388066, 42.269570835446494], [-89.10976322305807, 42.270254835569105], [-89.10973622329388, 42.270536835762044], [-89.10965622382626, 42.27138283608301], [-89.10963022388698, 42.271665835622535], [-89.1096092239706, 42.271881836281025], [-89.10957922293504, 42.272206835612366], [-89.10954822387122, 42.272530836200374], [-89.10952822467806, 42.27274783561159], [-89.10950722296502, 42.27296383655031], [-89.10947722462441, 42.27328983666383], [-89.10944522393905, 42.27361383567276], [-89.10942522384758, 42.27383083600815], [-89.10940422393118, 42.274046835894055], [-89.10937422379394, 42.27437083632898], [-89.10934322473013, 42.27469783616842], [-89.10932322463864, 42.27491583644817], [-89.10930622402189, 42.27509583662912], [-89.10928122390753, 42.275366836615035], [-89.10925522486657, 42.27563583674606], [-89.10923822335151, 42.275816836538894], [-89.10976722415434, 42.275844836717475], [-89.10974422458813, 42.276062836353006], [-89.10971022425292, 42.27638683639378], [-89.10967522499115, 42.276716836717], [-89.1096522236283, 42.27693483665943], [-89.10953722489889, 42.27803483740286], [-89.10940822412914, 42.27926483675139], [-89.1096092248689, 42.27927883740552], [-89.10947922517256, 42.2811138373037], [-89.1077792245828, 42.28112783821162], [-89.10748822432967, 42.28112983805622], [-89.10661922466653, 42.28113683784418], [-89.1063292242383, 42.28113983727833], [-89.10618722394807, 42.28114083753276], [-89.10576522327537, 42.2811448372211], [-89.10562422370838, 42.28114683772979], [-89.10547322319732, 42.28114783731949], [-89.1050202234608, 42.281152837926236], [-89.10487022277466, 42.28115483710543], [-89.10328222323622, 42.281170837847554], [-89.1029022232946, 42.2811748381986], [-89.10221422248313, 42.28118083772777], [-89.10207022254308, 42.28118183798155], [-89.10163822272294, 42.28118583833189], [-89.10149522260781, 42.28118783817467], [-89.10121122202737, 42.28118783817467], [-89.10090422277902, 42.281189838017376], [-89.10081022127106, 42.281189838017376], [-89.1007692230598, 42.281190838271016], [-89.10036022280589, 42.28119783805218], [-89.10007722205036, 42.28120283799035], [-89.10004122206534, 42.28104483762578], [-89.09993522265846, 42.28057383760372], [-89.09990022249836, 42.28041683792169], [-89.09963422235957, 42.28044983804819], [-89.09953322207723, 42.28044983804819], [-89.09879822141009, 42.28044983738356], [-89.0984262218644, 42.28044983804819], [-89.09805722089516, 42.28045083831358], [-89.09776622154034, 42.28045083831358], [-89.09733122134715, 42.28045083831358], [-89.09689422150413, 42.28045083831358], [-89.09660422107592, 42.28045183857895], [-89.09633322091425, 42.28044983804819], [-89.09592722103339, 42.280447838182], [-89.09552322080236, 42.28044483805027], [-89.09525322046561, 42.280443837784794], [-89.09496022056267, 42.28044183791841], [-89.09451922052169, 42.280439838051954], [-89.09408222067867, 42.280436837919865], [-89.09379021970231, 42.28043583765425], [-89.09378921987741, 42.2802918377893], [-89.0937882209508, 42.27985883793909], [-89.09378822005249, 42.279715838361845], [-89.09351922043899, 42.279714838084786], [-89.0927122189035, 42.27971483874942], [-89.09244322018829, 42.279714838084786], [-89.09235721997456, 42.279714838084786], [-89.09210121898322, 42.279715838361845], [-89.09201621949272, 42.27971683797424], [-89.09184121959053, 42.279602838856775], [-89.09131821953382, 42.27926283817688], [-89.09114421945654, 42.27914983785944], [-89.09137721998336, 42.27896683775667], [-89.09207521994227, 42.278420837811076]]]]}, "properties": {"tract": "002600", "geoid": "17201002600", "rural": "N"}}, {"type": "Feature", "geometry": {"type": "MultiPolygon", "coordinates": [[[[-89.08749121496376, 42.25103083377295], [-89.08786521505758, 42.25102683350346], [-89.08892321486661, 42.25101683349358], [-89.08898721533902, 42.25101683415851], [-89.08936221615608, 42.25101383395577], [-89.0894482163698, 42.25101183382051], [-89.0897092164857, 42.25100983302026], [-89.08979621562602, 42.25100983302026], [-89.09000921606136, 42.25100783288489], [-89.09015921584918, 42.251006833482116], [-89.0905602166055, 42.2510028332111], [-89.09064821557072, 42.25100183314331], [-89.09086221583097, 42.2510008330755], [-89.09094521656996, 42.25099883360479], [-89.09119621664011, 42.250996834134], [-89.0912802154074, 42.25099683346906], [-89.09134621642795, 42.25099583340118], [-89.09140921617714, 42.250994833333266], [-89.09179821633958, 42.2509918337944], [-89.09192821603591, 42.25099083372644], [-89.09205721590735, 42.25098883359045], [-89.09244421641995, 42.25098583338637], [-89.09246521723466, 42.25098583338637], [-89.0925742170146, 42.25098483331832], [-89.09270721708398, 42.250982833847075], [-89.0931092167669, 42.25097983364271], [-89.09324321755952, 42.25097883290961], [-89.09353721638907, 42.25097583336999], [-89.09442121701913, 42.25096783348872], [-89.09471621747024, 42.25096583335201], [-89.09547521752852, 42.25095883287304], [-89.09603521739517, 42.25095183305823], [-89.09611021773823, 42.25095183372317], [-89.09671221743767, 42.250946832715066], [-89.09662221882265, 42.25073383302204], [-89.09719521731144, 42.250820832580835], [-89.097922218481, 42.250929832875244], [-89.09946421798868, 42.25091683330755], [-89.10221221924003, 42.250902832337935], [-89.10228021991043, 42.25091283236589], [-89.10244421994194, 42.25093783276132], [-89.10248721959965, 42.25094383250898], [-89.10255622009494, 42.25095483259899], [-89.10253721982836, 42.25100183314331], [-89.10251821956179, 42.25104783292062], [-89.1024902199727, 42.25107583213261], [-89.10240821905863, 42.25122683336819], [-89.1023992197361, 42.25125483250073], [-89.1023712192487, 42.25128183288735], [-89.10232422029135, 42.25137783291242], [-89.10219222004687, 42.251542832925814], [-89.1020052195508, 42.25175683326741], [-89.10191022001456, 42.251866832663346], [-89.10172621899324, 42.25205883278139], [-89.10161621849005, 42.252158833151654], [-89.10144121858788, 42.25230683298312], [-89.10104921984905, 42.2525958333017], [-89.10097121913292, 42.252637833743954], [-89.10064321906985, 42.25283783315488], [-89.1003302190754, 42.25303683389082], [-89.09964721918512, 42.25348383356212], [-89.09963621841614, 42.253489833732516], [-89.0991822188547, 42.253780833332335], [-89.09881421860867, 42.25402883341221], [-89.09838521826327, 42.25431783381922], [-89.09804121830668, 42.254558833702774], [-89.09785521763553, 42.254689833730424], [-89.09675821836677, 42.2555428339202], [-89.09636121780841, 42.2558598337862], [-89.09594721753162, 42.25623483386485], [-89.09586221804112, 42.25632883436303], [-89.09580921833768, 42.25638983464673], [-89.09568921778876, 42.25653383393791], [-89.09562421838974, 42.25660283452061], [-89.09560621794809, 42.256643834310765], [-89.09554221747567, 42.25670583426712], [-89.09550521856406, 42.256780834518935], [-89.09547721897496, 42.25681583433996], [-89.09534821820523, 42.25709983408811], [-89.09529321885195, 42.2572208344655], [-89.09527121821233, 42.25732083462964], [-89.09523021910276, 42.257437834055224], [-89.0952202181587, 42.25746783435032], [-89.09515321731324, 42.25762783457502], [-89.09511021855384, 42.25772983401601], [-89.09506421852309, 42.25777783479094], [-89.09503721786061, 42.257832834581265], [-89.09494421797417, 42.25792283485998], [-89.0948252181485, 42.25801083443209], [-89.09473721828495, 42.25806683463984], [-89.09466821778967, 42.258101834411995], [-89.09454321721788, 42.25817683433325], [-89.09451721727862, 42.25819283426058], [-89.0942632177337, 42.25835683444519], [-89.0942352181446, 42.2583638347679], [-89.09420721855552, 42.25836283481682], [-89.09416321817459, 42.2585648345847], [-89.09403921742772, 42.25914683480716], [-89.09404621799872, 42.25917183393329], [-89.09410021842541, 42.25937283449885], [-89.09407621813595, 42.2594598347732], [-89.09405321767143, 42.259601834504615], [-89.09404721782364, 42.25970883439063], [-89.09403721777788, 42.259799834579546], [-89.09402421825742, 42.25992283494763], [-89.09402421825742, 42.26020883450842], [-89.09408421853188, 42.26088683502588], [-89.09409621822745, 42.26109583470575], [-89.09410321790014, 42.26120783491074], [-89.09414021771005, 42.26152783525502], [-89.09415221830395, 42.26163583509608], [-89.09418021789303, 42.26181283561748], [-89.09423121884497, 42.261987835190006], [-89.09427321867776, 42.26209083544835], [-89.09430721811464, 42.262157835487336], [-89.09433521770373, 42.26220183532537], [-89.09436821821402, 42.26225483546725], [-89.09441421914308, 42.26231783511383], [-89.09451821800182, 42.26243983533736], [-89.09460321839065, 42.262526835368924], [-89.09475721837643, 42.26266583452833], [-89.09485921848369, 42.26274283543259], [-89.09487621820213, 42.262783835219544], [-89.09494721834724, 42.26291683520428], [-89.09498821835511, 42.26301983527462], [-89.09509821795997, 42.26325683498461], [-89.09519321839454, 42.26342183516553], [-89.09526021924, 42.26355583566759], [-89.09529921869974, 42.26365983522591], [-89.09532621936224, 42.26376483514291], [-89.09535321912641, 42.26394283553344], [-89.09535421895133, 42.2640078358757], [-89.09535621949945, 42.264049835365746], [-89.09534621855542, 42.264192835920554], [-89.09535021875337, 42.264263835815186], [-89.09537221939298, 42.26440583602935], [-89.09537521886772, 42.26451283574068], [-89.09543421931727, 42.26470683561779], [-89.09544921848757, 42.26475683609932], [-89.09547221805379, 42.26486283536694], [-89.09551121931017, 42.264992835417026], [-89.09557921908223, 42.265211835866864], [-89.09561521906724, 42.2653888356563], [-89.09559121967611, 42.26549483519089], [-89.09556421901361, 42.265653835155774], [-89.09555021876989, 42.26570683571973], [-89.0954652192794, 42.26583683602381], [-89.09544521918792, 42.265868835975716], [-89.09541821852542, 42.265897835751915], [-89.09524621989459, 42.26603483579798], [-89.09518721854673, 42.26608283623378], [-89.09516921810508, 42.26611483606083], [-89.09516721935357, 42.2661208356942], [-89.0951412194143, 42.26621983587781], [-89.0950632186982, 42.26646383561285], [-89.09503121891115, 42.26656783569239], [-89.09502721871318, 42.26657783589553], [-89.09496121948924, 42.26673983590762], [-89.09494521869742, 42.26676783613014], [-89.09490621923766, 42.266838836448706], [-89.09474821905393, 42.26706083657307], [-89.09462321848213, 42.267213836383384], [-89.09457321915173, 42.26726583649072], [-89.09453921971486, 42.26730183628421], [-89.09446221882365, 42.26739283615067], [-89.09443821943253, 42.267423835505376], [-89.09432021943175, 42.26758083631344], [-89.09422621972043, 42.267691836496375], [-89.09416721927087, 42.267763836241016], [-89.09412221906503, 42.26782683636561], [-89.09400021886628, 42.26802183647881], [-89.09380321922279, 42.26826883659828], [-89.0936002188332, 42.268501836028435], [-89.09337621852723, 42.26875983656951], [-89.09322521891448, 42.26872683630411], [-89.09305821850991, 42.26869083599489], [-89.09277221827963, 42.26862883652206], [-89.09265321845395, 42.26860283670355], [-89.09262221849181, 42.268595836852846], [-89.09248921842241, 42.26856683632351], [-89.09209121893748, 42.26847983598496], [-89.09195921779468, 42.26845183652287], [-89.09172621816617, 42.268400835856234], [-89.09155321791381, 42.268317835791045], [-89.09144221758574, 42.2682648360927], [-89.09140721832394, 42.268247836267825], [-89.09097021758262, 42.26803883636464], [-89.09082521871599, 42.26796983566557], [-89.09057821704715, 42.26785183603884], [-89.0902072173264, 42.26767383604879], [-89.08983921708035, 42.267497836498116], [-89.08959321703307, 42.267380836460696], [-89.08934521733595, 42.26726183658625], [-89.088976217265, 42.26708583588531], [-89.08860121734627, 42.26690583676026], [-89.08835421747406, 42.26678783647141], [-89.08810821742676, 42.26667083644579], [-89.08737021638657, 42.26632283587025], [-89.08712421723759, 42.26620683680266], [-89.0870342159276, 42.2661638362631], [-89.08676521721239, 42.26603683612156], [-89.08667621662562, 42.26599483662566], [-89.08668521594812, 42.26480483617859], [-89.08647921608382, 42.26465783627745], [-89.08669421616896, 42.263714835869045], [-89.08669521599388, 42.26356283607793], [-89.08669621581879, 42.26339683572996], [-89.0866962167171, 42.26337283615611], [-89.08670021601675, 42.26280383549509], [-89.08670221656487, 42.26261483582891], [-89.08670221566658, 42.262588835524475], [-89.08670221656487, 42.26251083587646], [-89.0867032163898, 42.26248583607967], [-89.0867042162147, 42.26233883609006], [-89.08670721658775, 42.261898835954376], [-89.0867092162376, 42.26175283582319], [-89.08671021516416, 42.26156283510066], [-89.08671521518704, 42.260993835390686], [-89.0867172166335, 42.260804835617556], [-89.0867172166335, 42.26072883491941], [-89.08671921628333, 42.26050383535102], [-89.08672021610825, 42.26042983479155], [-89.08672121593314, 42.260260835074924], [-89.0867242163062, 42.25975683498884], [-89.08672621595602, 42.25958883539464], [-89.08672621595602, 42.25953783553611], [-89.08672721578093, 42.25938783485275], [-89.08672821560585, 42.2593388347029], [-89.08672921543075, 42.2591548349807], [-89.08673421545363, 42.25860183530479], [-89.08673621600175, 42.258418834711975], [-89.0867382156516, 42.25807083446282], [-89.08674621514918, 42.257028834769635], [-89.08674921552225, 42.25668183414112], [-89.08675421464679, 42.25609783446519], [-89.08675921556798, 42.255475834831024], [-89.0868162163677, 42.255229833793756], [-89.08680421577382, 42.255226834456295], [-89.08676521541577, 42.254733834125325], [-89.08676721596389, 42.25442783406792], [-89.0867692147154, 42.25416383461152], [-89.08676921561373, 42.2540858345153], [-89.08677121436523, 42.25385483371563], [-89.08677221598677, 42.25377783392597], [-89.08677221508846, 42.25372183389901], [-89.08677321491336, 42.253552834157325], [-89.0867742156366, 42.25349783395881], [-89.0867742156366, 42.25343283408549], [-89.08677621528642, 42.25323983412826], [-89.08677721511134, 42.253175834022386], [-89.08677821493623, 42.25300383403941], [-89.08678221423588, 42.252488834644964], [-89.08678421568233, 42.252317833500356], [-89.08678421568233, 42.25223083401159], [-89.08678621533215, 42.2519718336003], [-89.08678721425876, 42.251885834353004], [-89.08678821588029, 42.25171583362484], [-89.08679221517994, 42.25120583401064], [-89.08679421482977, 42.251036833511755], [-89.08693321564525, 42.25103483404218], [-89.08735121522169, 42.25103183384028], [-89.08749121496376, 42.25103083377295]]]]}, "properties": {"tract": "001000", "geoid": "17201001000", "rural": "N"}}, {"type": "Feature", "geometry": {"type": "MultiPolygon", "coordinates": [[[[-89.10194919999999, 42.23188079999999], [-89.1017412, 42.23200179999999], [-89.10160841054608, 42.232106076400605], [-89.10147721767457, 42.23214382981325], [-89.1014522166619, 42.23221582957199], [-89.10141721740013, 42.23235682974846], [-89.10141321720216, 42.23238183018086], [-89.10139121746084, 42.23253382929768], [-89.10138521671475, 42.232855830173406], [-89.10140521680624, 42.23328482955625], [-89.10142121759809, 42.233427830697906], [-89.1014432173394, 42.23355182963022], [-89.10145321738514, 42.23360483056927], [-89.1015152173094, 42.23381382953401], [-89.10155521749238, 42.23392683063681], [-89.1015832179798, 42.23400683039469], [-89.1016702171201, 42.23424783005841], [-89.10169921743243, 42.2343288297415], [-89.10177521760039, 42.234540829955506], [-89.10187121785988, 42.23478083058072], [-89.10193121813433, 42.234912830768344], [-89.10194821695445, 42.23495082972313], [-89.10198521766269, 42.23501683033878], [-89.10206321837882, 42.23518582985718], [-89.10211721880547, 42.23528582970543], [-89.10232221794658, 42.235610830778306], [-89.10246621788662, 42.23579683063316], [-89.10272121815476, 42.236101830978704], [-89.10290121807981, 42.23627083025201], [-89.10306321846151, 42.23640183034941], [-89.10316321802063, 42.23648282992835], [-89.10344021892837, 42.23668483060128], [-89.10357221827454, 42.23677283054077], [-89.10362021885342, 42.23680483060928], [-89.10379621858053, 42.23693883047048], [-89.10385721778158, 42.236984829860894], [-89.10395321804104, 42.237065830686795], [-89.10419321913888, 42.237291830355844], [-89.10435121842431, 42.237427830414056], [-89.1044202189196, 42.23749883051382], [-89.10446421840221, 42.237543830545064], [-89.10459021879892, 42.23765383078192], [-89.10462621878393, 42.23768883057523], [-89.10484521906703, 42.2380828308047], [-89.10540821930674, 42.23909483054171], [-89.1053782191695, 42.239287831213765], [-89.10531121922236, 42.23973483055171], [-89.10532122016642, 42.239744830354866], [-89.1053222181947, 42.23976583086745], [-89.10535621942822, 42.239800830819476], [-89.10536821912376, 42.23981383134776], [-89.10539521888794, 42.23986183046144], [-89.1054422187436, 42.23990883062507], [-89.10550121919317, 42.2400068311508], [-89.10550621921602, 42.240015830668916], [-89.10553421970343, 42.24003983115107], [-89.10553421970343, 42.24006083090042], [-89.105546219399, 42.240072830469025], [-89.10592621934059, 42.24030183072212], [-89.1060962192199, 42.24108283109361], [-89.10638521982322, 42.24241183155132], [-89.10613522047629, 42.243285830871585], [-89.1055042195662, 42.24460583194997], [-89.10496921981391, 42.24572883175246], [-89.10429721979428, 42.246694832289144], [-89.10411121912311, 42.246963832413165], [-89.10340121946864, 42.249791832591896], [-89.10329221879036, 42.24998083278983], [-89.10325922007672, 42.250040833145874], [-89.10287422011227, 42.25072383296571], [-89.10255622009494, 42.25095483259899], [-89.10248721959965, 42.25094383250898], [-89.10244421994194, 42.25093783276132], [-89.10228021991043, 42.25091283236589], [-89.10221221924003, 42.250902832337935], [-89.09946421798868, 42.25091683330755], [-89.097922218481, 42.250929832875244], [-89.09719521731144, 42.250820832580835], [-89.09662221882265, 42.25073383302204], [-89.09671221743767, 42.250946832715066], [-89.09611021773823, 42.25095183372317], [-89.09603521739517, 42.25095183305823], [-89.09547521752852, 42.25095883287304], [-89.09471621747024, 42.25096583335201], [-89.09442121701913, 42.25096783348872], [-89.09353721638907, 42.25097583336999], [-89.09324321755952, 42.25097883290961], [-89.0931092167669, 42.25097983364271], [-89.09270721708398, 42.250982833847075], [-89.0925742170146, 42.25098483331832], [-89.09246521723466, 42.25098583338637], [-89.09244421641995, 42.25098583338637], [-89.09205721590735, 42.25098883359045], [-89.09192821603591, 42.25099083372644], [-89.09179821633958, 42.2509918337944], [-89.09140921617714, 42.250994833333266], [-89.09134621642795, 42.25099583340118], [-89.0912802154074, 42.25099683346906], [-89.09119621664011, 42.250996834134], [-89.09094521656996, 42.25099883360479], [-89.09086221583097, 42.2510008330755], [-89.09064821557072, 42.25100183314331], [-89.0905602166055, 42.2510028332111], [-89.09015921584918, 42.251006833482116], [-89.09000921606136, 42.25100783288489], [-89.08979621562602, 42.25100983302026], [-89.0897092164857, 42.25100983302026], [-89.0894482163698, 42.25101183382051], [-89.08936221615608, 42.25101383395577], [-89.08898721533902, 42.25101683415851], [-89.08892321486661, 42.25101683349358], [-89.08786521505758, 42.25102683350346], [-89.08749121496376, 42.25103083377295], [-89.08735121522169, 42.25103183384028], [-89.08693321564525, 42.25103483404218], [-89.08679421482977, 42.251036833511755], [-89.08679521465469, 42.250815833557176], [-89.08680021557586, 42.25015283370213], [-89.0868032150506, 42.24993283405978], [-89.08680421487551, 42.24971783342616], [-89.08680921489837, 42.24907583340804], [-89.08681221437313, 42.24886183327991], [-89.08681321419802, 42.248646832985614], [-89.08681821511921, 42.24800483337172], [-89.08682121459394, 42.247790832935095], [-89.08682421406867, 42.247354832869334], [-89.08683521393934, 42.246049832985264], [-89.0868392141373, 42.24561583316302], [-89.08683921503561, 42.24551483290484], [-89.08684121468544, 42.24521283264972], [-89.08684321343694, 42.245112832572524], [-89.08684421416017, 42.244894832972044], [-89.08684921418303, 42.2442418331509], [-89.08685121473118, 42.2440248327142], [-89.086853214381, 42.24371483250565], [-89.08686021405369, 42.242957832828964], [-89.08686121387859, 42.24278683311239], [-89.08686321352842, 42.24247783234415], [-89.08686421425165, 42.24226983235223], [-89.0868692133762, 42.24164783268472], [-89.08687121392435, 42.241440831506075], [-89.08687121392435, 42.241371832292366], [-89.08687321357418, 42.2411668319858], [-89.0868742142974, 42.24109883203221], [-89.08687521322399, 42.24094683226219], [-89.08687821359703, 42.24049283188902], [-89.08688021324686, 42.24034183156102], [-89.08688121397009, 42.24016583220252], [-89.0868842134448, 42.239640831260346], [-89.08688621399295, 42.23946583219248], [-89.08688821274446, 42.23913583173662], [-89.0868962140387, 42.23814683159214], [-89.08689921441174, 42.23781783183107], [-89.08690021333835, 42.2376158321245], [-89.0869032137114, 42.23701083207511], [-89.08690521336122, 42.23680983140831], [-89.08690621408445, 42.236549831234015], [-89.08691021338409, 42.23577183088838], [-89.08691221393224, 42.235512830741555], [-89.08691321285882, 42.235350831650145], [-89.08691521340697, 42.234866830532745], [-89.0869172139551, 42.23470583077436], [-89.0869182128817, 42.234543830941675], [-89.08692021342982, 42.23405883128038], [-89.08692221397797, 42.23389783145612], [-89.08692221218134, 42.2337968303983], [-89.08692421272947, 42.233492830565545], [-89.08692521255439, 42.23339283053679], [-89.08692621327762, 42.233162830800566], [-89.08693021347557, 42.232471830857364], [-89.0869322131254, 42.232242830790625], [-89.0869342127752, 42.231846831270545], [-89.08694121244793, 42.23066083055661], [-89.08694421371929, 42.230265830154735], [-89.08694321299605, 42.23007283049248], [-89.086940212623, 42.22949482970408], [-89.086940212623, 42.22930283009171], [-89.08693921279809, 42.22911082989534], [-89.08693721224996, 42.2285348297933], [-89.08693721314827, 42.228343829683475], [-89.08693621242504, 42.22815083013125], [-89.0869342127752, 42.22757383014288], [-89.08693421187691, 42.22738183000908], [-89.086933212052, 42.22718782973117], [-89.08693021257726, 42.22660782955526], [-89.08693021167895, 42.226414829351896], [-89.08692921275235, 42.226222829684275], [-89.08692721310253, 42.22564682983863], [-89.08692721220422, 42.225454829165706], [-89.0869262123793, 42.225410829636026], [-89.08692621148099, 42.22527982934293], [-89.0869262123793, 42.2252368295023], [-89.08692521255439, 42.22506982958049], [-89.08692321200625, 42.22456882916023], [-89.08692321200625, 42.22440282929131], [-89.08692321200625, 42.22436082934343], [-89.08692321200625, 42.22423482866699], [-89.08692321290458, 42.224193829765326], [-89.08692221218134, 42.22403582954668], [-89.08692021163321, 42.22358582926653], [-89.0869192118083, 42.22356382885425], [-89.0869192118083, 42.22340682889467], [-89.08691721215845, 42.22308682939954], [-89.08691221123729, 42.2221298294118], [-89.08691121141237, 42.22181082929694], [-89.08690921176255, 42.22155782895449], [-89.08690721211272, 42.22118082855652], [-89.08690421173968, 42.220798829162426], [-89.08690321191476, 42.22054682930707], [-89.08690121226495, 42.22034982831845], [-89.08690021154172, 42.220236828189904], [-89.0868982118919, 42.219759828880534], [-89.0868982118919, 42.21956382799848], [-89.08846621223717, 42.21955882849412], [-89.09061921346176, 42.21955382765884], [-89.09317221292282, 42.21954582778515], [-89.09355221286442, 42.21954482854929], [-89.09470121380836, 42.21954182818056], [-89.09474121399134, 42.219541827515286], [-89.09487821425869, 42.21954082827937], [-89.09501921382568, 42.2195408276141], [-89.09529021398733, 42.21953982837817], [-89.09529721366003, 42.21953982837817], [-89.09542821407959, 42.21953982771289], [-89.09585221440213, 42.22032882799784], [-89.09595121413632, 42.22051282854208], [-89.0976092148933, 42.22222182845731], [-89.09766821534284, 42.222302828272454], [-89.09819721524734, 42.223026828689996], [-89.09864465736575, 42.22357989121876], [-89.0987392, 42.22395180000001], [-89.0987972, 42.2239998], [-89.09894919999999, 42.224140799999994], [-89.09909619999999, 42.2242918], [-89.0992402, 42.2244458], [-89.0993652, 42.224587799999995], [-89.09953719999999, 42.2247948], [-89.09980420000001, 42.2251348], [-89.1001892, 42.225609799999994], [-89.10055219999998, 42.2261118], [-89.1007572, 42.226419799999995], [-89.10083919999998, 42.2265548], [-89.10091919999999, 42.226705800000005], [-89.1010022, 42.226889799999995], [-89.1012712, 42.2275508], [-89.1013552, 42.22773680000001], [-89.1014802, 42.2279888], [-89.10157619999998, 42.22815879999999], [-89.10178019999998, 42.2284808], [-89.1020032, 42.228791799999996], [-89.1022962, 42.2291748], [-89.10241919999999, 42.2293618], [-89.1024882, 42.2294838], [-89.1025782, 42.2296858], [-89.1027082, 42.2300308], [-89.1027602, 42.230220800000005], [-89.1027902, 42.2303968], [-89.10279120000001, 42.2305498], [-89.10278619999998, 42.23068980000001], [-89.1027702, 42.23087279999999], [-89.10274820000001, 42.2309758], [-89.10274772017698, 42.230977219477225], [-89.10247121701119, 42.231389829475404], [-89.10227321754277, 42.231687829877345], [-89.10205108162873, 42.23182848242455], [-89.10194919999999, 42.23188079999999]]]]}, "properties": {"tract": "002100", "geoid": "17201002100", "rural": "N"}}]}