{"type": "FeatureCollection", "features": [{"type": "Feature", "geometry": {"type": "MultiPolygon", "coordinates": [[[[-89.10153566621756, 42.259532281327665], [-89.10152166230841, 42.25962290724957], [-89.10148740865985, 42.259623236418726], [-89.10075168011086, 42.259630301162325], [-89.1005356818975, 42.25961399922509], [-89.10053955476124, 42.25945620123771], [-89.10058257661717, 42.25931056926203], [-89.10059532653301, 42.259267405697074], [-89.10062307362416, 42.25916767772763], [-89.10065936880386, 42.259037218121534], [-89.10072696294178, 42.2588594791853], [-89.10073280776945, 42.25884410951171], [-89.10079496845668, 42.2586881622905], [-89.10083464707215, 42.25858776458904], [-89.10036438091925, 42.258523704719416], [-89.10017247677735, 42.25849754362587], [-89.09998943695044, 42.258472610746985], [-89.09982042259887, 42.2584495852507], [-89.09970605480171, 42.25843400387124], [-89.09969136835484, 42.25848604522473], [-89.09964012806661, 42.25866761075726], [-89.09958895764558, 42.25884889601617], [-89.09954862717915, 42.25899177613413], [-89.09947391179188, 42.259256468725034], [-89.09942309848219, 42.259436570613275], [-89.09939073851913, 42.2596185376805], [-89.099368570485, 42.259757714536775], [-89.0993180553555, 42.26007516040574], [-89.09927352507032, 42.260354994151086], [-89.0992687598277, 42.26038493799927], [-89.09923715439074, 42.26058340466954], [-89.09921884636606, 42.260698482073074], [-89.09933108265997, 42.26070759162962], [-89.09951059590675, 42.260722162667314], [-89.09972562324457, 42.26073961079554], [-89.09986358548339, 42.26075081289586], [-89.09993113236406, 42.26075629745812], [-89.1000154631075, 42.26076314449572], [-89.10009856777748, 42.260769892739035], [-89.10018075261245, 42.2607765657456], [-89.10020852518653, 42.260778820888945], [-89.10024098732714, 42.260774224212064], [-89.10029659936788, 42.260766350513826], [-89.10033343636492, 42.26074940991962], [-89.10036795826963, 42.26073111173787], [-89.10040718230732, 42.26071032020992], [-89.10040994811497, 42.26068917169372], [-89.10042024633346, 42.26061041708402], [-89.10043762568634, 42.2604775300522], [-89.10045221818724, 42.260365958793955], [-89.10047305587473, 42.26020663228586], [-89.10051139060678, 42.25991352130462], [-89.10051701092328, 42.25987055435972], [-89.10053351671503, 42.259630795863636], [-89.10053355074554, 42.25963107797497], [-89.1007499390225, 42.259647898515325], [-89.10151901678954, 42.25964003075757], [-89.10150764054265, 42.25971365544372], [-89.10145970263598, 42.26001363692435], [-89.10143801972805, 42.260149599201576], [-89.10140927949392, 42.260329539655515], [-89.10138057590996, 42.26050945252748], [-89.10135357120616, 42.26067843258009], [-89.10132313139722, 42.260869305794955], [-89.10189771727296, 42.2609159407683], [-89.10214009492192, 42.260935616271055], [-89.1027164167708, 42.260982373094485], [-89.10278219433556, 42.26098773062625], [-89.10275353325513, 42.26116756229584], [-89.10272470265105, 42.26134859968632], [-89.10271165499414, 42.261430363012366], [-89.10270211360383, 42.26149028870103], [-89.10269451495064, 42.2615379666821], [-89.10266915795623, 42.26169700045408], [-89.10265255487522, 42.26180120504818], [-89.10263810361415, 42.26189168287483], [-89.10260927353508, 42.262072719317395], [-89.10258061048617, 42.262252605809046], [-89.10251475725168, 42.262247274467114], [-89.10243683990903, 42.262240981247274], [-89.102233671846, 42.26222457918549], [-89.1022049231158, 42.26240509589348], [-89.102181170632, 42.26255432031787], [-89.10246218142068, 42.26257706995591], [-89.10244743834764, 42.26266952030256], [-89.10239961309557, 42.26296947606715], [-89.10237082717673, 42.263150047367645], [-89.10258513603607, 42.26316751318582], [-89.1027251443178, 42.263178909994636], [-89.10269640756289, 42.263358768788386], [-89.10266767111868, 42.26353859876233], [-89.10263897084174, 42.26371842995918], [-89.1030526906236, 42.26375212365559], [-89.10302557732591, 42.26393213441878], [-89.10295140192889, 42.26442387963108], [-89.10300800447757, 42.264478601061114], [-89.10427270367951, 42.26458233519461], [-89.10451505614817, 42.26460222513441], [-89.10450006123853, 42.26469653881321], [-89.1044584053263, 42.26475273701285], [-89.10436141107886, 42.26488355645844], [-89.10426437717727, 42.265014403360325], [-89.1042299029473, 42.26506089882056], [-89.10409816797284, 42.265238568433986], [-89.10392798870961, 42.26546810188193], [-89.10380059841005, 42.26563993782619], [-89.1036821668993, 42.26579967376988], [-89.10352941152809, 42.26600565863663], [-89.10333915531159, 42.26626225450081], [-89.10328455207406, 42.2663369099448], [-89.10329545947265, 42.2663408256669], [-89.10333438228434, 42.266352821185066], [-89.10337323692298, 42.26636671029429], [-89.10341216021962, 42.266378678781486], [-89.10345105246115, 42.266392568212986], [-89.10348990624281, 42.266406511292864], [-89.10352889458466, 42.266414611743855], [-89.10356778567775, 42.266428500224826], [-89.10360670979337, 42.26644049656295], [-89.10364562955317, 42.26645051668363], [-89.10368461795815, 42.26645861618199], [-89.10372357363075, 42.266468664518484], [-89.10376252569974, 42.266476763653564], [-89.10379987839053, 42.26648331203606], [-89.10387789286222, 42.26649951126368], [-89.1039169147934, 42.26650569064869], [-89.1039558996316, 42.266511841767304], [-89.10403400654552, 42.26652030454621], [-89.10407302850581, 42.26652648387838], [-89.10411194839534, 42.26653650384207], [-89.1041445219836, 42.26654816566422], [-89.10415083922621, 42.26655042003231], [-89.10418975914322, 42.26656043996985], [-89.10422865000638, 42.26657435613399], [-89.10426757480965, 42.2665863243449], [-89.1043064979474, 42.26659832043653], [-89.10438424390101, 42.26662612443169], [-89.1044232010041, 42.26663617254387], [-89.10446205607718, 42.26665006038798], [-89.10450101199591, 42.26666010846273], [-89.10452301081976, 42.266667968388035], [-89.10453990391234, 42.26667396961263], [-89.1045788606172, 42.26668404467732], [-89.10461774798652, 42.26669601242268], [-89.10465673667336, 42.26670411159325], [-89.10469566162483, 42.266716080560556], [-89.104734515128, 42.26672999620717], [-89.10477344012567, 42.266741964248176], [-89.10479256599855, 42.26674702548779], [-89.10483840451343, 42.2667608959403], [-89.10487892432916, 42.26677685804894], [-89.10491208457026, 42.266784491729865], [-89.10495156392237, 42.266798605762126], [-89.10498910786863, 42.26680916097363], [-89.10502502312411, 42.266815503885255], [-89.10505498087798, 42.26682242184721], [-89.10506042810248, 42.26682365166977], [-89.10510185787625, 42.26683819514398], [-89.10513943942665, 42.26684875155468], [-89.10517689826843, 42.266864382722325], [-89.10520555326768, 42.266871864779944], [-89.10525137077812, 42.2668869979973], [-89.1053106831918, 42.266901459325545], [-89.10535591745086, 42.266918342692826], [-89.1053925699704, 42.26692257840243], [-89.10542063577742, 42.2669189416206], [-89.10547474794576, 42.26693291629305], [-89.10551186121297, 42.266944949245925], [-89.10555282198864, 42.26695443932145], [-89.10559040323305, 42.266965022590654], [-89.10562807146287, 42.26697042001011], [-89.10566570120858, 42.26697587197958], [-89.10570341010029, 42.26697877321186], [-89.1057469420122, 42.26698702388097], [-89.1057818154089, 42.26699601821116], [-89.1058162470785, 42.267002730679344], [-89.10585383453841, 42.26701070664391], [-89.1059290465743, 42.267026687689125], [-89.10596670752344, 42.26703469220586], [-89.10600429502225, 42.26704266812151], [-89.10604192484574, 42.2670481199683], [-89.10608831589498, 42.26706427279669], [-89.10611901291689, 42.267080033785994], [-89.10615651490619, 42.26709311357568], [-89.10619413882279, 42.26710108976593], [-89.10623160448247, 42.26711416919512], [-89.10626922321772, 42.267124697670155], [-89.10629812601995, 42.267132813758515], [-89.10630680513994, 42.26713525370186], [-89.10635207676631, 42.267147691328475], [-89.1063947442021, 42.26716117531952], [-89.1064568083156, 42.26719012305396], [-89.10649777744631, 42.26720578714329], [-89.10654070397996, 42.26721705062863], [-89.10657907138682, 42.26723137259496], [-89.10662020072284, 42.26724854702832], [-89.10665910095808, 42.26725971833318], [-89.1067026115466, 42.26727584428804], [-89.10673538136083, 42.267286986813225], [-89.1067672696108, 42.26729995959884], [-89.10680477188299, 42.26731303827882], [-89.10681466397982, 42.26731579189569], [-89.10687989904588, 42.26733412173055], [-89.10691748045329, 42.267344649648], [-89.10695850409626, 42.26735265790484], [-89.10699952092615, 42.26736324455015], [-89.1070371035834, 42.26737377243995], [-89.10707473415148, 42.267379196945825], [-89.10711235910398, 42.267387200753845], [-89.10714998923471, 42.267392652240055], [-89.10718854834403, 42.267408787182056], [-89.10722604558966, 42.267424418935455], [-89.10726350575108, 42.267440022424665], [-89.10727338595012, 42.26744348893158], [-89.10730104531453, 42.26745312919626], [-89.10733854777571, 42.26746620860377], [-89.10737608782281, 42.26747928834619], [-89.10741706254649, 42.26749239890114], [-89.10745460778207, 42.26750292630851], [-89.10749562524765, 42.2675134857732], [-89.1075332554738, 42.2675189380349], [-89.10757096601387, 42.2675218377684], [-89.1076085967191, 42.26752726210044], [-89.10764630725302, 42.267530162709406], [-89.10768401657869, 42.26753306329483], [-89.10772512542528, 42.26753599435882], [-89.1077471782414, 42.267540670695006], [-89.10776275100926, 42.267543970950285], [-89.10780381715465, 42.26754945394909], [-89.10784144156017, 42.267557429603556], [-89.10787902915007, 42.267565432815175], [-89.10792013334249, 42.26757088911453], [-89.10795775730915, 42.26757889263619], [-89.10799538808396, 42.267584316842], [-89.10803649184763, 42.267589800104794], [-89.10807755683646, 42.267595282994925], [-89.10811102279659, 42.26760237028909], [-89.10811518250235, 42.26760325947157], [-89.1081527706227, 42.26761123468901], [-89.10819383050976, 42.26761926984773], [-89.10823141984692, 42.26762724595093], [-89.10827247975489, 42.26763528108169], [-89.10831014695061, 42.26764070552039], [-89.10834777855486, 42.26764615662733], [-89.10838540308987, 42.26765413210461], [-89.1084229908094, 42.26766213513918], [-89.10846405242931, 42.26767014320812], [-89.1085016401688, 42.267678146217115], [-89.10854270061269, 42.26768615334675], [-89.10857929409387, 42.26769620524767], [-89.10858150064317, 42.267696829709436], [-89.10861921058385, 42.26769970208375], [-89.1086567983615, 42.26770770504228], [-89.10869450907292, 42.267710604408016], [-89.10869963307513, 42.267711310701074], [-89.10873213999395, 42.26771602837351], [-89.10876980804048, 42.2677214796782], [-89.10880751753903, 42.267724379895924], [-89.10882292409062, 42.26772660801448], [-89.10884514847868, 42.26772980382451], [-89.10888290186736, 42.267730152065006], [-89.10892053236589, 42.267735602973865], [-89.10895820044152, 42.26774105421696], [-89.10899578874023, 42.26774903006016], [-89.10903534336771, 42.26775655676876], [-89.10907648519103, 42.267764126010604], [-89.10911855603688, 42.26777137429431], [-89.10915273116568, 42.2677868091262], [-89.10918831332805, 42.2678065387607], [-89.10919153625645, 42.26780821513321], [-89.10919168274503, 42.26780829841155], [-89.10922920147506, 42.26782711227726], [-89.10926313588766, 42.26785695239576], [-89.10929179923849, 42.26788386203521], [-89.10931219822263, 42.26791236913088], [-89.10933230487026, 42.26794059983557], [-89.10934214312721, 42.26796870795393], [-89.10935194503408, 42.26799681573622], [-89.10935357437074, 42.26801203326423], [-89.10935491153036, 42.268024860496524], [-89.1093647497947, 42.26805296951297], [-89.10937751823347, 42.26810912205265], [-89.10938392064031, 42.26813719848944], [-89.10939032426455, 42.268165274936976], [-89.10939329078427, 42.26819331969577], [-89.10939625896962, 42.26822133746064], [-89.10939918913536, 42.26824938188386], [-89.10940902746738, 42.268277489995874], [-89.10941542990378, 42.26830556643044], [-89.10942866779816, 42.268333705882064], [-89.10943850614065, 42.268361814891584], [-89.10945174239335, 42.26838998133424], [-89.10946509613666, 42.268415542483204], [-89.10947106009661, 42.268425613327175], [-89.1094769291823, 42.268434833410836], [-89.10948899061933, 42.26845365918575], [-89.10952070117186, 42.26848183207182], [-89.10955940277125, 42.268507215434724], [-89.10957522176739, 42.26853562534417], [-89.1096008725784, 42.268563742349535], [-89.1096241128839, 42.268592413323766], [-89.1096489420968, 42.26862109893858], [-89.1096699294154, 42.268649748236626], [-89.1096916560373, 42.268678405245105], [-89.10969404424172, 42.26868136404293], [-89.10960302503501, 42.268693614588976], [-89.10961072212086, 42.268703921074454], [-89.10962335404594, 42.268715233668836], [-89.10978053954723, 42.26896645237147], [-89.1098215987785, 42.26904845577275], [-89.10985630626853, 42.26913206258213], [-89.10988454774707, 42.26921700076132], [-89.10990623321163, 42.26930299669406], [-89.1099212921851, 42.26938976884021], [-89.10993108240585, 42.26944951667894], [-89.10993830383539, 42.269516752066316], [-89.10994157925204, 42.26958415726032], [-89.10988796859144, 42.2701526028505], [-89.10987063889745, 42.270336272225315], [-89.10962601006104, 42.27033846330729], [-89.10904909953094, 42.270343626389604], [-89.10898262184585, 42.27034422148192], [-89.1084057108247, 42.270349408330965], [-89.1081610824021, 42.27035156928172], [-89.1064326791386, 42.27036702221993], [-89.10643450160312, 42.27140020296485], [-89.10643490794652, 42.271629450557285], [-89.10643642468501, 42.27248681195842], [-89.10643674379483, 42.27266839313569], [-89.10643750367701, 42.27309697790842], [-89.10643759898993, 42.27314639994069], [-89.10643832935152, 42.273574572968144], [-89.10643864840873, 42.273756154111524], [-89.10643898414294, 42.27393449791975], [-89.10643941463759, 42.27418652236115], [-89.10643951636426, 42.274235560915265], [-89.10643968540032, 42.27432911008868], [-89.1064402584335, 42.27466526988613], [-89.10644057667862, 42.27484682397951], [-89.10644097183597, 42.27505249964866], [-89.10644123924743, 42.2751842206889], [-89.10644127254663, 42.27523292909188], [-89.10644142132274, 42.275327685366086], [-89.1064415285576, 42.275376394451435], [-89.1064418821649, 42.275571312920036], [-89.10644220157843, 42.27575286699644], [-89.10644300264858, 42.27620985282333], [-89.10644328996027, 42.27637343297391], [-89.10644343472255, 42.276466185122736], [-89.10644368377288, 42.27659241772699], [-89.10644379493682, 42.27666952863303], [-89.1064440750868, 42.276822542772805], [-89.10644473567882, 42.27719750620662], [-89.10644544075389, 42.27725242297667], [-89.10644564440926, 42.277449699685675], [-89.10644581145048, 42.27758523341892], [-89.1064459426699, 42.277709597686034], [-89.1064461857582, 42.27794639074613], [-89.1062021603138, 42.27791965697727], [-89.10573997549238, 42.27789485508544], [-89.10562172567771, 42.27788852036949], [-89.10555434808659, 42.27788490522782], [-89.10541575606966, 42.27787744845421], [-89.10526608809948, 42.27786942264141], [-89.10498214707341, 42.27785419898988], [-89.1049824136998, 42.27808926277674], [-89.1049826425735, 42.27827147495352], [-89.1049828384809, 42.27840950546489], [-89.10498296042655, 42.278547536188576], [-89.10498311873125, 42.278685567245674], [-89.10498327657716, 42.278823625304305], [-89.10498347244798, 42.27896165670277], [-89.10498368363659, 42.279164778169275], [-89.10498389498025, 42.279345864775024], [-89.10474005000464, 42.27934333234048], [-89.10414313511804, 42.27934433479563], [-89.10414300162654, 42.27948208763605], [-89.10414288406366, 42.27958800959784], [-89.10414276736493, 42.27970051816379], [-89.10414260622268, 42.2798552846171], [-89.1041425793222, 42.279889860405376], [-89.10414248882508, 42.279965597338794], [-89.10414240047784, 42.2800786544432], [-89.10414227436945, 42.28018732043065], [-89.1041421764295, 42.280292145095515], [-89.10414204075603, 42.28040794587058], [-89.10414192386114, 42.28051606275416], [-89.10417444814118, 42.28051578791602], [-89.10417442302904, 42.280618445326844], [-89.10417440587143, 42.280650277085684], [-89.10417421421353, 42.281057529737886], [-89.10417779049047, 42.28125157216981], [-89.10442745663883, 42.28124902802549], [-89.10461964898874, 42.28124707643307], [-89.1046239696338, 42.2816719068878], [-89.1046300555455, 42.28227539480388], [-89.10463972208109, 42.28324223816546], [-89.10323442297647, 42.28325388364445], [-89.10314934009209, 42.28325463139591], [-89.10314847601586, 42.2832620328501], [-89.10314517375154, 42.28329141862154], [-89.10313618045066, 42.283320724602305], [-89.10313519146041, 42.283379522116476], [-89.1031318896369, 42.283408880882], [-89.10313420246719, 42.283438319630015], [-89.10313370820415, 42.283467704434074], [-89.1031347531658, 42.28347369661804], [-89.10313886786402, 42.28349714167538], [-89.10315419265116, 42.28352859443165], [-89.10316464211884, 42.2835532785317], [-89.10316849735284, 42.28358775345539], [-89.10318211733103, 42.283617269156885], [-89.10319577490145, 42.283646785205256], [-89.10323073563868, 42.2836972444215], [-89.10324805268422, 42.28373546608786], [-89.10325632213643, 42.283760156971304], [-89.103278212638, 42.283794552456285], [-89.10328898948393, 42.28382176402057], [-89.10329973150792, 42.28385984187924], [-89.10331054355098, 42.28388935943535], [-89.10331854727617, 42.28391882303971], [-89.10333598472579, 42.2839565245345], [-89.10334586221285, 42.28397788300712], [-89.10335671113361, 42.284007372991034], [-89.10336467852646, 42.28403683625475], [-89.10337268303721, 42.284066327771264], [-89.10338384992274, 42.284094503561995], [-89.10341846949672, 42.28412352791903], [-89.10341883416497, 42.284123832900676], [-89.10343914635288, 42.28415094109763], [-89.10345170062376, 42.28417578243068], [-89.10347536999629, 42.28420989186868], [-89.10349187300598, 42.284239434261025], [-89.10351915065765, 42.284298493838854], [-89.10353353051484, 42.2843245863987], [-89.10354931113926, 42.28435757923596], [-89.10356296856567, 42.28438712314551], [-89.10357658889356, 42.2844166388001], [-89.10359028318219, 42.284446155138596], [-89.10360109545614, 42.284475672667], [-89.10361619826641, 42.28450275954674], [-89.10363646220675, 42.2845569797854], [-89.10365057094499, 42.28459047838244], [-89.1036643948124, 42.28461892635654], [-89.10367855678784, 42.284649187965755], [-89.10368887640658, 42.2846772190249], [-89.10370437800408, 42.28470922162395], [-89.10371601736634, 42.28473786811467], [-89.10373239070297, 42.284766339712256], [-89.10374356039914, 42.28479660058524], [-89.10375652902458, 42.284825369229324], [-89.10376992175102, 42.28485307224687], [-89.10378625687083, 42.284883820339886], [-89.10379959544157, 42.28491251048046], [-89.10381338162868, 42.284943207934866], [-89.1038228192705, 42.28497315114517], [-89.10383915444604, 42.28500389923064], [-89.10384636676613, 42.28503653891776], [-89.10385717972459, 42.28506602851654], [-89.10387100957098, 42.28509189626054], [-89.10388819690726, 42.28512251539094], [-89.1038981110325, 42.28515051566225], [-89.10391181039485, 42.28518414817612], [-89.10392566212771, 42.28521311674778], [-89.10393928400819, 42.28524263237021], [-89.10394163529908, 42.28527204444113], [-89.10394902703545, 42.28529617885243], [-89.1039576068481, 42.28533099822538], [-89.10399379007056, 42.285366019386124], [-89.1040089358408, 42.28539497292994], [-89.10402192123871, 42.28542492198975], [-89.10403444740352, 42.28545146366002], [-89.1040507616519, 42.2854768331298], [-89.10406314279751, 42.28550976828067], [-89.104073482782, 42.28553884203735], [-89.10408916927068, 42.28556859644518], [-89.104101667078, 42.28559675658338], [-89.10411147867221, 42.28562206578924], [-89.1041244556937, 42.28565259095057], [-89.10413740799127, 42.28568451584697], [-89.10414982560451, 42.28571745042508], [-89.1041622741794, 42.28574637895571], [-89.10417535079067, 42.28577314538268], [-89.10418538814434, 42.28578726054853], [-89.10419277696009, 42.28579613753934], [-89.10420138091638, 42.28581416382839], [-89.10420938648056, 42.2858436282796], [-89.10422300695797, 42.28587317086172], [-89.10423951073754, 42.28590271314682], [-89.10424820552515, 42.285932869108485], [-89.10426021841637, 42.28595699229382], [-89.10427530400723, 42.28599170715925], [-89.10428885501499, 42.28602105822581], [-89.1043049561442, 42.28605032217919], [-89.10431695054888, 42.28607987759396], [-89.10432785398527, 42.286108407362626], [-89.10434194176372, 42.28613655609359], [-89.10435388559131, 42.28616479389746], [-89.10437036548122, 42.286197930837], [-89.10437840755351, 42.28622739471265], [-89.10438918545604, 42.286258996934265], [-89.10440280864142, 42.2862906255122], [-89.10441362159423, 42.28632014296239], [-89.10442443381342, 42.2863496324954], [-89.10443286042738, 42.28637822213676], [-89.1044498671492, 42.28640425608004], [-89.10445221017923, 42.28640776284294], [-89.1044743303398, 42.286437385026424], [-89.10448233443859, 42.28646687645128], [-89.10449159229009, 42.286492180492225], [-89.10449314792596, 42.28649636598892], [-89.10450396142316, 42.28652585552551], [-89.10451761976093, 42.28655539842047], [-89.10453408625402, 42.28658494121531], [-89.10453483540897, 42.28658653898333], [-89.10454778219967, 42.28661448445475], [-89.10456140344844, 42.286643999991604], [-89.10457790711226, 42.28667357013307], [-89.10459437367847, 42.28670311201914], [-89.10460803254897, 42.28673262789854], [-89.10462449822175, 42.28676222469006], [-89.10464100286741, 42.286791739912786], [-89.1046683566019, 42.286850799900634], [-89.10468763218493, 42.286880367787575], [-89.10473536362538, 42.286936378099725], [-89.10474997634662, 42.28696411930157], [-89.10477899800303, 42.287000912298595], [-89.10480954588748, 42.287034838463114], [-89.10482730925214, 42.2870642824862], [-89.1048466218113, 42.28709382277873], [-89.10486589753499, 42.28712339153641], [-89.10488520966115, 42.2871529597275], [-89.10490452180517, 42.28718252791538], [-89.10492383563287, 42.28721206910653], [-89.10493919398264, 42.28724162768896], [-89.1049584685964, 42.287271195519914], [-89.10497382742973, 42.28730072709296], [-89.10499314132507, 42.287330268272584], [-89.10501332002357, 42.287356688915345], [-89.10503177207625, 42.28738246245921], [-89.10505283448161, 42.28741344679073], [-89.10506474266647, 42.28744160135804], [-89.10508584592398, 42.28747239339739], [-89.1051064246162, 42.28750359291369], [-89.10512212268493, 42.28753054824897], [-89.10513835727102, 42.28756071901587], [-89.10515775473155, 42.28759410251735], [-89.10517568879361, 42.28761989825121], [-89.10519041545594, 42.28765408929273], [-89.10520182032437, 42.287683557223936], [-89.10521714299844, 42.28771308842804], [-89.10523645591803, 42.287742629556064], [-89.10525576961442, 42.287772197696874], [-89.10527109112216, 42.287801728882606], [-89.10529040364, 42.28783129700646], [-89.10530971738804, 42.28786086513832], [-89.1053290299416, 42.287890433255775], [-89.10534438909364, 42.287919964779675], [-89.1053636652959, 42.2879495334549], [-89.10537902494646, 42.28797903706927], [-89.10539833709919, 42.28800863308016], [-89.10541857971874, 42.288033435502896], [-89.10543646179008, 42.28806241417136], [-89.1054562391531, 42.2880973100374], [-89.10548341572583, 42.28812741725954], [-89.10550030738703, 42.28814930679936], [-89.10551951078664, 42.28818546046242], [-89.10553732745106, 42.28821386231781], [-89.10554900952981, 42.288242289330675], [-89.10556076647809, 42.28827066301706], [-89.10557555262314, 42.288299091741486], [-89.10557697797863, 42.288302232570175], [-89.10558878745266, 42.28832747819987], [-89.10560198545524, 42.28835589222514], [-89.10561677210642, 42.28838429303929], [-89.10562628982473, 42.288407377448074], [-89.10562852865715, 42.288412693723465], [-89.10564327894768, 42.28844109509786], [-89.10566868825555, 42.288470746576664], [-89.1056884086932, 42.28849373271691], [-89.105694158461, 42.28850125029615], [-89.10555621360183, 42.28850225165589], [-89.10553732672496, 42.28850235147485], [-89.10539609261089, 42.28850340413124], [-89.10521201893432, 42.28850471909378], [-89.10502938720244, 42.28850601920122], [-89.1048452771523, 42.28850733323812], [-89.1046604646994, 42.28850866748311], [-89.10447931126423, 42.28850995339626], [-89.10437773839146, 42.28851068614316], [-89.10429445840114, 42.28851361935184], [-89.10410804242008, 42.28852017939155], [-89.10383213531905, 42.28852991603722], [-89.10376262742709, 42.2885314676053], [-89.10357267459985, 42.28853080420196], [-89.10340523439172, 42.28855172593153], [-89.10271663951923, 42.288564437937865], [-89.10268115770599, 42.28856454806656], [-89.10259984471782, 42.28856486311959], [-89.10251853216946, 42.288565152010364], [-89.10250522588353, 42.28856522029028], [-89.10218463563793, 42.288568309125075], [-89.10208208432984, 42.288567878372206], [-89.10190791657803, 42.28856258446983], [-89.10173335584305, 42.288547654354005], [-89.10155956182314, 42.288546451651214], [-89.10138539926268, 42.28854524526126], [-89.10126626003115, 42.28854441299483], [-89.10102638287655, 42.28853458282685], [-89.10085232589608, 42.28853581911949], [-89.10067830649686, 42.28853705549721], [-89.10050428709626, 42.28853829161075], [-89.10021331811177, 42.28854036110814], [-89.10004011097739, 42.28854160407125], [-89.09974448475047, 42.28854373799457], [-89.09939315638978, 42.288546203514365], [-89.09871221579985, 42.28857175055306], [-89.09868599978647, 42.2885593226481], [-89.0982865085251, 42.288564354904096], [-89.09828667475057, 42.28857862619085], [-89.09809890479052, 42.28857995021141], [-89.09791479415243, 42.288581280120816], [-89.09772998035363, 42.288582603179826], [-89.09772982242488, 42.28857014337126], [-89.09754869969555, 42.28857174812772], [-89.09754880063096, 42.28858549663308], [-89.09736190713804, 42.28858740380939], [-89.0973616563067, 42.28857384566981], [-89.09730029683575, 42.28857437093861], [-89.09730040775513, 42.28858315348845], [-89.0969467874334, 42.288585618045815], [-89.09693272815245, 42.288585113266784], [-89.09691866389564, 42.28858554745131], [-89.09633157082449, 42.28859068894209], [-89.09597015024771, 42.28859107451376], [-89.09585642830004, 42.288591192007466], [-89.09585628625584, 42.28858433040374], [-89.09556859883567, 42.288580271514746], [-89.09556858251797, 42.288576869132974], [-89.09545022205576, 42.288578095279355], [-89.09513387948458, 42.28858136883103], [-89.09488998640172, 42.28858389171492], [-89.09470494127083, 42.28858583974461], [-89.09451985949859, 42.28858773131449], [-89.09433477893376, 42.28858962259682], [-89.09414977063109, 42.28859154216547], [-89.09396472595306, 42.28859346109525], [-89.09377964368736, 42.288595379374634], [-89.09353578813828, 42.28859789972844], [-89.09338086947945, 42.288599495542776], [-89.09322225419336, 42.28860113937068], [-89.09306367648615, 42.288602783330894], [-89.0929050611926, 42.28860442671982], [-89.09274644636935, 42.288606041984394], [-89.09258786745396, 42.2886076843748], [-89.09242928973188, 42.288609327457316], [-89.09218539655174, 42.28861184458587], [-89.09196316519956, 42.288614152778365], [-89.09174089794425, 42.28861643229422], [-89.09151866657746, 42.28861873962484], [-89.09129639762075, 42.28862104617211], [-89.09107420308429, 42.28862332507721], [-89.09064500685834, 42.28862775046944], [-89.0902765439903, 42.28863153706436], [-89.09009197976894, 42.28863342634319], [-89.08990741506737, 42.28863534322959], [-89.08972281446592, 42.28863723157241], [-89.08947895875649, 42.28863974419483], [-89.08910923770802, 42.28864356923644], [-89.08892437762896, 42.288645454755425], [-89.0883698352516, 42.288651162997354], [-89.08812594192696, 42.28865367148745], [-89.08794167299862, 42.28865558709046], [-89.08775740451075, 42.28865747629274], [-89.08757313603338, 42.2886593642986], [-89.08738890390595, 42.28866125325069], [-89.08702033008002, 42.28866505534359], [-89.08668775795094, 42.28866848228967], [-89.08650312089365, 42.288670365104146], [-89.08650290512605, 42.28867000655343], [-89.08631844455977, 42.288672275160444], [-89.08613380628039, 42.28867415736853], [-89.08606734388565, 42.28867484821263], [-89.08588266921407, 42.288676730573584], [-89.08569803046149, 42.28867863908425], [-89.08551335410598, 42.288680547843285], [-89.08526946283224, 42.288682995356915], [-89.08497378174036, 42.28868607919831], [-89.0847151403305, 42.28868871590142], [-89.08464864033945, 42.28868940556822], [-89.0844638548453, 42.28869131160664], [-89.08409428143284, 42.2886951218666], [-89.08385042554028, 42.28869762161326], [-89.08348148101244, 42.28870138181809], [-89.08329702813101, 42.2887032621085], [-89.08323060207901, 42.28870395165121], [-89.08304614920647, 42.28870583063769], [-89.08292442454139, 42.288707067877716], [-89.08280266304106, 42.288708331649275], [-89.08267724175614, 42.28870961561337], [-89.08243331186158, 42.28871211164578], [-89.08224896927564, 42.288713991292596], [-89.08206462670034, 42.28871586974276], [-89.0818802460589, 42.28871777544561], [-89.08181389442485, 42.28871843696212], [-89.0816295149891, 42.28872034227306], [-89.08144517238215, 42.28872222062706], [-89.08126079220335, 42.288724097428634], [-89.08101693621242, 42.28872659114659], [-89.08082438760921, 42.28872858257434], [-89.08063364998176, 42.28873053501184], [-89.08053022196034, 42.28873158647651], [-89.08034543683645, 42.28873345797018], [-89.08016198325981, 42.28914591654614], [-89.0801399156641, 42.289195540764496], [-89.08006660323228, 42.289360371330545], [-89.079978449974, 42.28955856670346], [-89.07991713148438, 42.28969637133423], [-89.0798561579134, 42.28983349317029], [-89.07979503024681, 42.289970887200276], [-89.0796727760292, 42.29024570397145], [-89.07955055804182, 42.29052046602266], [-89.07948927475096, 42.29065829864139], [-89.0794254551476, 42.29080173223769], [-89.07936209598088, 42.2909441816331], [-89.07929869892322, 42.291086631530455], [-89.07924102866714, 42.29121631995539], [-89.07914791089269, 42.29142563573371], [-89.07910623436072, 42.2915193639151], [-89.07901934466851, 42.29171466158775], [-89.07868304340325, 42.292470685198], [-89.07862164188853, 42.292608680032394], [-89.07852486828035, 42.29282619288064], [-89.07846077388648, 42.29297025437969], [-89.07823919265233, 42.293468375633736], [-89.07765801384377, 42.2947965511312], [-89.07759284466314, 42.29492125629175], [-89.07754351174364, 42.29503214371411], [-89.0774941418082, 42.29514305777015], [-89.0774328103646, 42.295280970633605], [-89.07737144179279, 42.29541891101705], [-89.07731007344397, 42.29555682255646], [-89.0772487031127, 42.29569476284997], [-89.07718733420143, 42.29583267521117], [-89.07715692321668, 42.29597151279496], [-89.07715840378104, 42.2961086223184], [-89.07715988291798, 42.29624581465247], [-89.07716139917659, 42.296383034344956], [-89.07716287974165, 42.296520143858864], [-89.0771643593448, 42.29665730917888], [-89.07716583727012, 42.29679450148869], [-89.07716722210581, 42.29691788955635], [-89.0771686648692, 42.29705508152603], [-89.07717018038265, 42.29719227418376], [-89.07717165953687, 42.29732946559254], [-89.07717313867579, 42.29746665789829], [-89.07717433768214, 42.29757937026554], [-89.0771746178149, 42.297603850200865], [-89.07717617422276, 42.29774085147117], [-89.07768857227788, 42.29773589477675], [-89.07775508083577, 42.29773526416723], [-89.07793416155232, 42.29773350659715], [-89.07826677729099, 42.297730270316315], [-89.07851070276922, 42.29772794793624], [-89.07906509930453, 42.29772256076419], [-89.07913157168856, 42.29772184618556], [-89.07968593105662, 42.29771642864941], [-89.0799298574364, 42.29771404833979], [-89.08029944270518, 42.297710442592866], [-89.08048421629933, 42.2977086530468], [-89.08055072577811, 42.29770796590578], [-89.08094249247797, 42.297704157649264], [-89.0811050857942, 42.297702568521345], [-89.08134901045361, 42.2977002121844], [-89.0819033708773, 42.29769478393421], [-89.08196987866718, 42.297694122962696], [-89.08252420147411, 42.29768869045392], [-89.08276816366221, 42.29768633235214], [-89.08295293673555, 42.297684565830565], [-89.08313774879707, 42.29768271745253], [-89.08332252353732, 42.297680923342035], [-89.08338903177773, 42.297680234542476], [-89.08357384288738, 42.297678440370454], [-89.08394339159312, 42.297674823429475], [-89.08418731614951, 42.29767246195196], [-89.08474167638613, 42.297667019073046], [-89.08480818461354, 42.297666329449946], [-89.0853625443431, 42.297660910572525], [-89.08560660448097, 42.297672239973224], [-89.08619423715923, 42.29766647354419], [-89.08678183222014, 42.297660702848134], [-89.08711470452018, 42.29765752523641], [-89.08711753953779, 42.2979892880399], [-89.08712122865427, 42.29838996310632], [-89.08712320446857, 42.29860753490181], [-89.08712438494624, 42.29873103076277], [-89.08712552829621, 42.29885449926267], [-89.08712663526951, 42.29897796741755], [-89.08712777863374, 42.299101435012155], [-89.08712892319463, 42.29922490351574], [-89.08713006654244, 42.29934837200532], [-89.0871315787261, 42.299513005541456], [-89.08713272207265, 42.29963647402504], [-89.08713386664662, 42.2997599416173], [-89.08713500951542, 42.29988343800042], [-89.08713558143403, 42.29994515783622], [-89.08713615287579, 42.300006905576076], [-89.08713729622025, 42.30013037404934], [-89.08713844077673, 42.30025384253141], [-89.08713995295504, 42.3004184760423], [-89.08714113118229, 42.300546362591746], [-89.0871423106215, 42.3006742491498], [-89.08714349006016, 42.30080213570512], [-89.08714466846189, 42.300927882242554], [-89.08714581050121, 42.30105362753469], [-89.08714698842518, 42.3011794019715], [-89.08714850107472, 42.301344007551876], [-89.08714964066112, 42.30146769563424], [-89.08715078522725, 42.30159116318821], [-89.08715192856488, 42.30171463162832], [-89.08715310949238, 42.301838100419786], [-89.0871542157153, 42.30196154059617], [-89.08715528629548, 42.30208500834357], [-89.08715687243142, 42.3022496424998], [-89.08715797723742, 42.30237316548152], [-89.08715827575723, 42.302403325524246], [-89.08715912226099, 42.30249660601202], [-89.08715984211237, 42.30257344769277], [-89.08716026559468, 42.30262007443321], [-89.08716098544576, 42.30269691611235], [-89.08716140798973, 42.30274359776108], [-89.08716255133774, 42.30286706527696], [-89.08716357999845, 42.30297999554152], [-89.08716512853903, 42.303144629318915], [-89.08683251665016, 42.30314819299512], [-89.08664768624473, 42.30315018396865], [-89.08646285675712, 42.30315212063501], [-89.08627806347029, 42.30315413837111], [-89.08609327062426, 42.303156129704846], [-89.08590847705281, 42.30315809192434], [-89.08572368419593, 42.30316008266213], [-89.08553889061378, 42.3031620442857], [-89.08535406136748, 42.30316403408451], [-89.08516926775927, 42.303165996012225], [-89.08498447489606, 42.30316798465796], [-89.08479968202741, 42.30316997300571], [-89.08461488840312, 42.303171934039504], [-89.08443009552366, 42.30317392179134], [-89.08424526551018, 42.3031758818858], [-89.08406043502875, 42.303177868686696], [-89.08383870521493, 42.30318024858338], [-89.08365761025344, 42.30318216017465], [-89.08347651480855, 42.30318409938444], [-89.08329541814588, 42.30318603829656], [-89.08311432269063, 42.30318797693402], [-89.08293318965451, 42.30318991402986], [-89.0827520946522, 42.303191825090416], [-89.08257099871821, 42.30319378987384], [-89.08238993962084, 42.30319572771057], [-89.08220880702756, 42.30319763665701], [-89.08202767395028, 42.30319957322182], [-89.081846578459, 42.30320150985602], [-89.08166548174992, 42.30320344619257], [-89.08148442262683, 42.30320538259871], [-89.0813014422492, 42.30320732754198], [-89.08111653507227, 42.303198661966846], [-89.0806341734249, 42.303584910217864], [-89.08056610477244, 42.30363939422631], [-89.08016526151317, 42.30396033534537], [-89.07995689048545, 42.30412723286931], [-89.07983218411876, 42.304227033524086], [-89.07964870134722, 42.30437397003527], [-89.07946521818589, 42.304520879234836], [-89.0790296919175, 42.30486958659174], [-89.07892368560778, 42.30495447105618], [-89.07882142760647, 42.30503634528106], [-89.07864791169919, 42.305175280158686], [-89.07861383857968, 42.30520256261307], [-89.07843035061522, 42.30534946918015], [-89.07814269107398, 42.30557976859756], [-89.07796920857338, 42.305718701845954], [-89.07787988109921, 42.305790215843096], [-89.0778211423267, 42.305837213495565], [-89.07726155597115, 42.306285252085864], [-89.07726322063077, 42.30648026473154], [-89.07726370536749, 42.306537895458085], [-89.0772649588967, 42.30668606091026], [-89.07726637117403, 42.306850693372404], [-89.07726751682041, 42.30698788228895], [-89.07727043830113, 42.30733086861589], [-89.07727198436761, 42.30750919492479], [-89.07727336025584, 42.30767382701832], [-89.07727454348883, 42.307811016272915], [-89.07727576263626, 42.3079482328744], [-89.07727710260436, 42.30811283760561], [-89.0772785148676, 42.30827747002796], [-89.0772803851961, 42.308496988799696], [-89.07728153204084, 42.30863417768952], [-89.07728271528153, 42.30877136602165], [-89.07728389850561, 42.30890855525076], [-89.0772850453468, 42.309045744131005], [-89.07728622856862, 42.30918293335373], [-89.07728737372896, 42.30932014922051], [-89.0772885581613, 42.30945733844837], [-89.07728974137981, 42.30959452766153], [-89.07729088748351, 42.30973168860974], [-89.07729207023408, 42.309868904820966], [-89.07729321706687, 42.31000609367889], [-89.07729443618213, 42.31014331112954], [-89.07729590661351, 42.310321801389144], [-89.0772907856982, 42.3105029731199], [-89.07729221256584, 42.31065388511919], [-89.07729358610834, 42.31079930840998], [-89.07729405209076, 42.31084733456983], [-89.07729497058367, 42.31094198770209], [-89.07729642532429, 42.3110956440539], [-89.07729787885144, 42.31124930039019], [-89.07729933239337, 42.31140295582234], [-89.07730014723981, 42.31149074771423], [-89.07730277315271, 42.31176512850845], [-89.07730406670385, 42.31190231871642], [-89.07730520533406, 42.31202071019493], [-89.07730672792444, 42.3121853426566], [-89.0773080226865, 42.31232253286633], [-89.07730939021556, 42.312459723764235], [-89.07731064737995, 42.31259691361044], [-89.0773119421403, 42.31273410381063], [-89.07731323522152, 42.31287132100053], [-89.07731456684606, 42.313008483635464], [-89.07731586160472, 42.313145673826114], [-89.07731639315156, 42.31320058874377], [-89.07731715636275, 42.313282864013566], [-89.07731818282137, 42.31339263767951], [-89.0773200100716, 42.31358468786634], [-89.077321836855, 42.31377676505137], [-89.07732360064531, 42.3139617338068], [-89.07742513008424, 42.314141751615146], [-89.0774217295951, 42.31540439024656], [-89.07746830332466, 42.31550167192807], [-89.07750020918093, 42.31556827267714], [-89.07747335298778, 42.31601494971459], [-89.07703035669441, 42.31593409774251], [-89.07655597495719, 42.31593856184572], [-89.07646726056622, 42.31593939202001], [-89.07600145898512, 42.31594377065522], [-89.07581595844911, 42.315898869297214], [-89.07526059262568, 42.315904066438044], [-89.07471927835628, 42.31590914802632], [-89.07453445127611, 42.31591087273994], [-89.0739799355696, 42.31591607267326], [-89.07342541863068, 42.315921269011845], [-89.07324055513764, 42.31592299129185], [-89.07270452949292, 42.31592800396281], [-89.07255378277104, 42.31592821223579], [-89.07132366551926, 42.315929666751316], [-89.07115620354203, 42.31594074480682], [-89.07063438075353, 42.31597521777499], [-89.07069080815252, 42.31567242379334], [-89.07074577419901, 42.31546436994958], [-89.07098681170206, 42.31455195488885], [-89.07106304293394, 42.31425821418376], [-89.0711999744495, 42.31373051408528], [-89.07125235412155, 42.31352863644108], [-89.0714152345287, 42.31290083259256], [-89.07268552588923, 42.31288612262274], [-89.07388677501245, 42.31287219456154], [-89.07393407189345, 42.312871656792986], [-89.07393406144418, 42.312872260791075], [-89.07394231164041, 42.31351097412006], [-89.07422199277052, 42.31350771252154], [-89.07448658446145, 42.31350463511728], [-89.0745050743632, 42.31350442681234], [-89.07468990151118, 42.313502290697336], [-89.07469115119814, 42.3136010631007], [-89.07469286790504, 42.313732741210316], [-89.07469454653352, 42.31386444686347], [-89.07469626988832, 42.31399574060479], [-89.07520205010319, 42.31398990940954], [-89.07527597339603, 42.31398910417522], [-89.07579343898577, 42.313983107006614], [-89.07597856178418, 42.3139809986383], [-89.07653304498369, 42.31397458139662], [-89.07708752716375, 42.313968217281115], [-89.0770865684913, 42.3138909620051], [-89.07708591752797, 42.31383651231093], [-89.07708430789316, 42.3137048073378], [-89.07708269703099, 42.313573103250384], [-89.07708104980095, 42.313441397914126], [-89.07707944016916, 42.31330969293223], [-89.07707783053834, 42.31317798794739], [-89.07707048889665, 42.31258124071177], [-89.07706801470343, 42.31237955298949], [-89.0770663403657, 42.31224513027956], [-89.0770646774397, 42.31210793656774], [-89.07706300308867, 42.311973514751784], [-89.07706049074437, 42.311767710498394], [-89.07705486286764, 42.31130950147723], [-89.07704824537974, 42.31077365238384], [-89.07704495459294, 42.31050574194412], [-89.07705196300562, 42.310324532344175], [-89.07704805618795, 42.30986513227072], [-89.07704569081419, 42.30959075386096], [-89.07704514292183, 42.30952392964968], [-89.07704336863937, 42.309318160234035], [-89.07704017602407, 42.30893949814394], [-89.07703611804386, 42.30846319258203], [-89.07703410610488, 42.30822830531994], [-89.07703181466407, 42.30795392843723], [-89.07702826655488, 42.30754236068459], [-89.07702652911033, 42.307336563641], [-89.07701920826666, 42.30647926326985], [-89.07699009247214, 42.30609900960481], [-89.07698637553237, 42.30566074094837], [-89.07698356025128, 42.305326728778056], [-89.07698349260848, 42.30531778189609], [-89.07698064019364, 42.304983742344696], [-89.07698057255062, 42.304974795462186], [-89.07697844753842, 42.304725089017275], [-89.07697638800612, 42.30448438434258], [-89.07698404165791, 42.30448434724141], [-89.0770022301939, 42.304484300418245], [-89.07699990157722, 42.30420989509968], [-89.0769951003933, 42.30365016156531], [-89.07699215294454, 42.303298063778556], [-89.07699107139011, 42.303169986380844], [-89.0769900829228, 42.30308158951624], [-89.07698621650295, 42.30272490045503], [-89.07694189066393, 42.30272505539906], [-89.0769381315496, 42.302379317638106], [-89.07693503106135, 42.302093982491634], [-89.07594968691686, 42.30209699029341], [-89.07595500594033, 42.302371369249045], [-89.07558599025664, 42.302372495938236], [-89.07527364678546, 42.302373447831926], [-89.0752717555476, 42.302183262967354], [-89.07526907659489, 42.301908223080225], [-89.07526581784356, 42.301578981625426], [-89.07526553701123, 42.301550302714695], [-89.07526568048858, 42.3014521195655], [-89.07526364162312, 42.30135825146991], [-89.07532449046667, 42.30135803476188], [-89.07533609842568, 42.30135800839669], [-89.07533343651306, 42.30109046000057], [-89.07533338524615, 42.30108486146979], [-89.07533076001802, 42.300821649237996], [-89.07532806937792, 42.300547267294114], [-89.07532434855487, 42.300174115706994], [-89.07531945619942, 42.29968257114856], [-89.07506076603244, 42.29968540518166], [-89.07445834904026, 42.29969212695535], [-89.07394643938503, 42.299697786866176], [-89.07330560883685, 42.29970490536186], [-89.07330511701545, 42.29965643951069], [-89.06709317470882, 42.29973564415986], [-89.06684042809974, 42.29973887315351], [-89.066839290477, 42.29957910015386], [-89.06683814522198, 42.299419765521066], [-89.06683702464376, 42.299261172964904], [-89.06683590454844, 42.29910255249995], [-89.06683474589062, 42.29894398747926], [-89.06683362410733, 42.29878539399853], [-89.06683250351813, 42.29862680142531], [-89.06683138292617, 42.29846820884783], [-89.0668302247434, 42.298309615905545], [-89.06682910294913, 42.29815102240773], [-89.06682798234895, 42.297992429817455], [-89.06682700630772, 42.297855215252454], [-89.06707118948495, 42.29785297460576], [-89.06709525621018, 42.29785273813798], [-89.06762695465332, 42.2978476549796], [-89.06768606873058, 42.29784706917454], [-89.06787088024137, 42.29784530032424], [-89.06824043024208, 42.29784170611213], [-89.06848335791693, 42.29783934059406], [-89.06903912344399, 42.29783398801578], [-89.06909827462948, 42.297833428846566], [-89.06965263604513, 42.29782805895339], [-89.06989556320892, 42.29782571744643], [-89.07045136549978, 42.2978203304633], [-89.07051044439314, 42.297819742865315], [-89.07106480401586, 42.29781439403458], [-89.07130773235016, 42.29781204954599], [-89.07186349742416, 42.29780662835125], [-89.07192264858965, 42.29780606772436], [-89.07203829018967, 42.297804948888306], [-89.07210742411331, 42.29780426379065], [-89.07247697222402, 42.29780068381122], [-89.07271993640822, 42.29779836458101], [-89.07327570261232, 42.297792935649646], [-89.07333481737686, 42.297792374847226], [-89.07388917728919, 42.29778698445067], [-89.07413180920382, 42.297784659061264], [-89.07468753772154, 42.29777922292553], [-89.07474668933342, 42.29777863383665], [-89.07530104987826, 42.29777326452719], [-89.07554497525052, 42.29777089263889], [-89.07609933620634, 42.29776549246369], [-89.07648862992734, 42.29775934234003], [-89.07682339727498, 42.29775786017416], [-89.0769321515739, 42.297757383975785], [-89.076920692707, 42.29693426138234], [-89.07691877079796, 42.29679703784531], [-89.07691111869188, 42.296248334865936], [-89.07690731153693, 42.29597394302337], [-89.07693608921014, 42.2958419502497], [-89.07696800868378, 42.29577002814508], [-89.07703104086848, 42.2956278787019], [-89.07738503273161, 42.294829741499264], [-89.08004409644657, 42.28883353484987], [-89.0799865997795, 42.28878559918537], [-89.07988287566255, 42.28878672918695], [-89.07955558685107, 42.28879029534904], [-89.07896536238275, 42.28874737822298], [-89.07695243954404, 42.28876857781795], [-89.07649263868423, 42.28876876288813], [-89.07636637941333, 42.28858935921977], [-89.0763544382372, 42.28857242450692], [-89.0761890044947, 42.28833732661897], [-89.07607605867045, 42.28817679253896], [-89.07623794952316, 42.28811370780154], [-89.07629204979717, 42.28809262588588], [-89.07759907722006, 42.28758336336447], [-89.0770870878608, 42.286855233131476], [-89.07697425385372, 42.286694700059186], [-89.07719041944954, 42.28661080882907], [-89.07735416243068, 42.286547246721575], [-89.07751794145499, 42.2864836847212], [-89.07768171968833, 42.28642014948694], [-89.07784546169233, 42.2863565866644], [-89.07800923975482, 42.28629302304863], [-89.07817301747603, 42.286229460094624], [-89.07833679560338, 42.286165924818405], [-89.07850057268857, 42.286102360487384], [-89.07871669669622, 42.28601846596809], [-89.07882972043329, 42.28617894333158], [-89.0789456665869, 42.28634359327666], [-89.0789557949699, 42.28634349668611], [-89.07912841130938, 42.28634186852771], [-89.07925404784751, 42.28634070031407], [-89.0794383435504, 42.286338962769854], [-89.07962267683044, 42.28633722528557], [-89.07980701010649, 42.28633548750482], [-89.07986596628179, 42.286334920908175], [-89.080050299073, 42.28633321064088], [-89.08023459597113, 42.286331471827836], [-89.0804189292341, 42.28632973306298], [-89.08055073869146, 42.28632848415683], [-89.08060973121485, 42.28632791842225], [-89.08079509855574, 42.286326188846324], [-89.08108825105828, 42.28632342133117], [-89.0811675779409, 42.286249147685524], [-89.08119901558779, 42.28617886635239], [-89.08125774294442, 42.28604740332882], [-89.0813165059567, 42.285915967618195], [-89.08135013519644, 42.28584068511515], [-89.08137523161784, 42.28578450361126], [-89.08143341892027, 42.28565429759524], [-89.08154852147128, 42.28539689032901], [-89.08159902232774, 42.285283844105194], [-89.08160517115579, 42.28527004488635], [-89.08165620921817, 42.28515585133506], [-89.08172377162846, 42.28500471368064], [-89.08178126746569, 42.284875926999504], [-89.08184071873143, 42.284743043518304], [-89.08189886603348, 42.28461286386984], [-89.08195639778086, 42.284484132348844], [-89.0820145417708, 42.28435411735848], [-89.08202295833912, 42.284335262778036], [-89.08204737598193, 42.2843035241131], [-89.08212580593049, 42.28420166332506], [-89.08221963620782, 42.284078873920144], [-89.08228167328701, 42.28399765850439], [-89.0823454107897, 42.283914208384694], [-89.08240933734717, 42.28383054124292], [-89.08243837020123, 42.28379258995023], [-89.08246229861304, 42.28376128681378], [-89.08255488172495, 42.28364002124143], [-89.08264954087022, 42.28351616884998], [-89.0827085146838, 42.28343895757631], [-89.08276843276943, 42.28336054789508], [-89.0828904998058, 42.28320073171555], [-89.08295117380689, 42.283121342350924], [-89.08301033536321, 42.28304388600762], [-89.08306688821695, 42.282969862130926], [-89.08313058584194, 42.28288649400675], [-89.08319447178216, 42.28280288094292], [-89.08323718965059, 42.282746948318184], [-89.08324917248875, 42.28273128288507], [-89.08333120454789, 42.28262388421731], [-89.08339958821497, 42.28253438595399], [-89.08347148729742, 42.282440310421414], [-89.08354713110867, 42.282341221332814], [-89.083774470672, 42.28204368391771], [-89.08410452049354, 42.281710590557864], [-89.08438801589384, 42.28142444772366], [-89.08444590661853, 42.28137570987863], [-89.08454691546976, 42.28129066288014], [-89.08460094405343, 42.28124520881484], [-89.08458775133565, 42.28123660440357], [-89.08446854031938, 42.281158754101], [-89.0841723032189, 42.28096535110343], [-89.08395917149163, 42.28082621612864], [-89.08359872370472, 42.280591263338216], [-89.08346817025841, 42.28050693794413], [-89.08313832796053, 42.28029107015399], [-89.08313039691029, 42.280294590111346], [-89.08235162052398, 42.27979161384696], [-89.08246377286633, 42.279746352944755], [-89.08258723645976, 42.27969656232105], [-89.08268550904893, 42.2796569057958], [-89.08279803297366, 42.279611511231494], [-89.08281254496491, 42.279605638893464], [-89.08284250985561, 42.279590774562784], [-89.08297287856085, 42.27952612091196], [-89.08299412253422, 42.27951559189742], [-89.08303575245674, 42.27949493808569], [-89.08307954427356, 42.27947320632135], [-89.08325877352016, 42.27938431700565], [-89.08336562488708, 42.27933129406404], [-89.08338899257089, 42.279319715481755], [-89.08341690775717, 42.27930587418414], [-89.0834341251569, 42.27929733812734], [-89.08344128195715, 42.27929378382541], [-89.08354524235241, 42.279236891826514], [-89.08370817883093, 42.279147710165425], [-89.08385664179018, 42.27906645919249], [-89.0839377372581, 42.27902205686213], [-89.08397880602759, 42.27899958600308], [-89.08402065927886, 42.278976683189164], [-89.08414789591062, 42.27890703166507], [-89.08425152082593, 42.27885032851672], [-89.0843143368483, 42.27881593396689], [-89.08438130618693, 42.27876560725885], [-89.08445044665709, 42.27871365525233], [-89.08447941946932, 42.27869189383205], [-89.08468066318667, 42.278540642770764], [-89.08468118921253, 42.278540154369566], [-89.08473255115229, 42.27849275381512], [-89.08483899142776, 42.27839450353465], [-89.08491791138322, 42.27832162329333], [-89.08503677839234, 42.27821190948869], [-89.08507975418236, 42.27816648776074], [-89.08509683839263, 42.278148482639025], [-89.08492806384639, 42.27805858474439], [-89.08413235960214, 42.27771423587], [-89.08410851278146, 42.277738762703805], [-89.0840794282367, 42.27776699883877], [-89.08406210323363, 42.277788294834394], [-89.08405697139317, 42.27779453048117], [-89.08403340544507, 42.27782205074769], [-89.08400983947634, 42.27784957100898], [-89.08397969644084, 42.277877030068815], [-89.08394623838065, 42.277906075660354], [-89.08391261341173, 42.27793191009598], [-89.08391059099219, 42.27793348273089], [-89.08387251087784, 42.27796050940029], [-89.08384015196309, 42.277987946599204], [-89.08380235279212, 42.27801371367701], [-89.08376455829425, 42.278037011263095], [-89.0837308111545, 42.27805913975589], [-89.08372274005643, 42.278064414018836], [-89.08368757402415, 42.27808309895574], [-89.08364877086407, 42.27810490508344], [-89.08361352397695, 42.27812830860691], [-89.08357618050707, 42.27815117104353], [-89.083536961653, 42.278167018621964], [-89.08351547948008, 42.27818072805148], [-89.08349919045091, 42.27819113921388], [-89.08346190850939, 42.278218969149606], [-89.08342412361756, 42.27824388545241], [-89.08338634247426, 42.27826638717324], [-89.0833486411772, 42.278286420112686], [-89.08331497883361, 42.2783035823272], [-89.08331091591165, 42.27830565694794], [-89.0832689607277, 42.278330204291194], [-89.08323808978308, 42.27834626747998], [-89.08320858597847, 42.278366597495086], [-89.08316896018015, 42.278391111891466], [-89.08312793226008, 42.27841764410238], [-89.08311624075368, 42.27842491519013], [-89.08309200103659, 42.278439998449876], [-89.08305101834758, 42.278466009786634], [-89.08300204919486, 42.27849447007812], [-89.08296398119202, 42.27851650259196], [-89.08292945351833, 42.27853887015189], [-89.08291356081584, 42.278547720254195], [-89.082882632353, 42.27856493518667], [-89.08285317395037, 42.27858260335111], [-89.08281255733402, 42.27860669682124], [-89.08277492403846, 42.278622668959514], [-89.0827371441145, 42.27864514346656], [-89.0827066122691, 42.27866071545135], [-89.08269941846626, 42.27866437919471], [-89.08266170186423, 42.2786852076265], [-89.0826240051254, 42.2787028248635], [-89.0825860068156, 42.27872282773292], [-89.08252992151832, 42.27875039677267], [-89.08248405012928, 42.278770543947694], [-89.0824744329191, 42.27877547489449], [-89.08245392711908, 42.27878609272093], [-89.08241593374942, 42.2788036800754], [-89.08237992459728, 42.278819804285064], [-89.08234907926604, 42.27883427574407], [-89.08230240739518, 42.278860233015024], [-89.0822496109948, 42.27888341614506], [-89.08224443559493, 42.27888567197134], [-89.08219613068849, 42.278909857270506], [-89.08216249405486, 42.278925482574635], [-89.08212661181796, 42.27894070220269], [-89.08208901478828, 42.278956729375444], [-89.08205144739745, 42.278971027339956], [-89.08203968394172, 42.278976047786756], [-89.08201210041655, 42.278987860809906], [-89.08197570682633, 42.27900263710765], [-89.08194317539846, 42.279014183638864], [-89.0819189761512, 42.27902037566892], [-89.0819053917113, 42.27902384206436], [-89.08186778739672, 42.279038167528405], [-89.0818301454885, 42.27905249262439], [-89.08179258303551, 42.27906437594596], [-89.08175384683734, 42.279077894799066], [-89.08171626949111, 42.27909057381975], [-89.08167862705484, 42.27910492586971], [-89.08163990107882, 42.27912003651104], [-89.0816011310428, 42.27913764325388], [-89.08156350313371, 42.27915114552019], [-89.08152257372335, 42.279165439406434], [-89.08148496804306, 42.27917976383097], [-89.08146599088236, 42.279187405149045], [-89.08144731183141, 42.279194912439586], [-89.08140859940215, 42.27920922726541], [-89.08137173882722, 42.27922103426338], [-89.08133363788203, 42.2792341196396], [-89.08129530793128, 42.27924981010397], [-89.08125266303686, 42.279262825436064], [-89.08121453330408, 42.279277585057756], [-89.08119236028853, 42.279284097713756], [-89.08114146935146, 42.27930386732424], [-89.08110103519783, 42.2793194558771], [-89.08105838194345, 42.27933288249449], [-89.08101799873513, 42.27934761981655], [-89.08100647344327, 42.27935168179155], [-89.08098100554089, 42.279360716462726], [-89.08094082379326, 42.279370214119204], [-89.08090336753632, 42.279378009892014], [-89.08086571544032, 42.2793907149338], [-89.08082708104516, 42.27940258868804], [-89.08078945840242, 42.279413647335204], [-89.0807519640613, 42.27942146970676], [-89.08071329810157, 42.279430872700935], [-89.08067351817735, 42.27944273465481], [-89.080635983077, 42.27945299911573], [-89.08059838647699, 42.27946246711681], [-89.08056091768611, 42.279471057623454], [-89.08052230170097, 42.27947966516129], [-89.08048371955039, 42.27948418474516], [-89.08044186155699, 42.27949435327763], [-89.08039927329428, 42.27950193461791], [-89.08036349621268, 42.27950873058203], [-89.08032830480418, 42.27951594352025], [-89.08029283007825, 42.27952235789861], [-89.08025315782203, 42.27953013246482], [-89.08021566334885, 42.2795379546593], [-89.08020057226372, 42.27954096723131], [-89.08017702504884, 42.27954573899514], [-89.08013844654535, 42.279554346758516], [-89.08010095812028, 42.2795596985501], [-89.0800623561585, 42.27956748319153], [-89.08002371735853, 42.27957529447985], [-89.07998617839355, 42.27958146952922], [-89.07994761277003, 42.279589254476285], [-89.0799081313813, 42.27959233746894], [-89.0798706985306, 42.27959445313412], [-89.07983321127301, 42.2795998048491], [-89.07979568935627, 42.27960921837583], [-89.07975811644295, 42.27961948219017], [-89.0797205391186, 42.27963218846356], [-89.07968298081708, 42.27964160070812], [-89.07964547374465, 42.27965021846124], [-89.0796080691543, 42.27965068766022], [-89.07957836820437, 42.27964585058583], [-89.0795708507722, 42.27964462693751], [-89.0795334239797, 42.27964427212739], [-89.0795054588535, 42.279671749743684], [-89.07946788023665, 42.27968445592173], [-89.07943030891931, 42.279694691734136], [-89.07939276420541, 42.279703309047505], [-89.07935521339178, 42.27971439581285], [-89.07931647675294, 42.27972788682588], [-89.0792788714475, 42.27974221142757], [-89.07924113969182, 42.27976388846591], [-89.07920385637206, 42.279791635063475], [-89.07916610188082, 42.279812515996255], [-89.07912832683333, 42.27983663509961], [-89.07909058521273, 42.2798566941557], [-89.07905283963869, 42.27987916686525], [-89.07901502814333, 42.27990328558511], [-89.07897721219118, 42.279929846763146], [-89.07893942847616, 42.27995234698244], [-89.07890166862371, 42.27997564328038], [-89.07886402550132, 42.27998996738618], [-89.07882643854221, 42.28000102572511], [-89.07878832338983, 42.2800148789728], [-89.07874960865932, 42.28002919287473], [-89.07871089956208, 42.28004106430393], [-89.07867342045208, 42.28004803535491], [-89.07863481756056, 42.280055846514216], [-89.07859725835627, 42.28006528720258], [-89.07855975089076, 42.280073904595355], [-89.07852217798775, 42.28008414009367], [-89.0784835330319, 42.2800943933157], [-89.07842401851707, 42.28011062273019], [-89.07840842426293, 42.28011489251058], [-89.07837078094863, 42.28012921645187], [-89.07833205310826, 42.28014435296162], [-89.07829332943706, 42.28015699206658], [-89.07821819171559, 42.28017916541886], [-89.0781806699712, 42.28018860542551], [-89.07814313896327, 42.28019639958422], [-89.07810462046265, 42.2801992993308], [-89.07806610195877, 42.28020219906441], [-89.0780286562262, 42.28020510896934], [-89.07798898774426, 42.28021044027267], [-89.07795042718374, 42.28021578208098], [-89.07791299439181, 42.28021786919708], [-89.07787544471402, 42.28022892757716], [-89.07783784326396, 42.28024080922743], [-89.07780026398284, 42.28025351484996], [-89.07776267788402, 42.2802645737474], [-89.07772514064375, 42.28027483633128], [-89.07768701447142, 42.280276422524665], [-89.07764967544004, 42.28027524505843], [-89.07763606500744, 42.280278079589365], [-89.07761214431862, 42.280283039041855], [-89.07757440197356, 42.280303096688584], [-89.07753678223537, 42.28031821644369], [-89.07749812281195, 42.28032929206896], [-89.07745839797508, 42.28033788803966], [-89.07742088098144, 42.280344858320355], [-89.07738333066438, 42.28035594444189], [-89.07734571534151, 42.28036862166319], [-89.07730705585496, 42.28037969722322], [-89.07726949796105, 42.28038910957841], [-89.07723200262761, 42.28039693078598], [-89.07717192011069, 42.28040964208357], [-89.07713451461971, 42.280410136574595], [-89.07710147302957, 42.2804146797505], [-89.07705617313631, 42.280427311770524], [-89.07700313054008, 42.28044313558529], [-89.07696662423518, 42.280455823220066], [-89.07693954762972, 42.28047450011621], [-89.07690959802082, 42.2804862624117], [-89.07687202767619, 42.28049850055823], [-89.07683441973961, 42.2805107383351], [-89.07679680417102, 42.28052552837626], [-89.07675919026265, 42.28054029141179], [-89.0767215387748, 42.28055505317743], [-89.07668392483166, 42.28056981618777], [-89.0766463534484, 42.28058210916838], [-89.07660873874084, 42.280596844237394], [-89.07659802394538, 42.28060105121754], [-89.07657108716944, 42.28061160685282], [-89.0765335597339, 42.28062134786492], [-89.07649603273705, 42.28063106276018], [-89.07642102603862, 42.2806454972014], [-89.07638354254522, 42.28065268713323], [-89.07634597747987, 42.28066242772597], [-89.0763084069091, 42.280674666585135], [-89.07627074929272, 42.28069195258351], [-89.0762237369341, 42.280707339111665], [-89.07617618381839, 42.28073270930089], [-89.07616854647291, 42.280744903253144], [-89.07616117396381, 42.280756714395174], [-89.07612679574547, 42.280798043419395], [-89.07608364161938, 42.28082759858222], [-89.07601565428124, 42.28086361397015], [-89.07596701319075, 42.28088562551011], [-89.07591166273691, 42.280906722427694], [-89.07586870863607, 42.28092467185054], [-89.07581453751807, 42.28094163676108], [-89.07576830187804, 42.28095703048992], [-89.07572917963857, 42.28096917156923], [-89.07569165185018, 42.280978913201395], [-89.0756541883561, 42.280987035794254], [-89.07560813338692, 42.280987668067084], [-89.07557602312578, 42.28098535938155], [-89.07550127836315, 42.28098464817324], [-89.07546383765967, 42.28098934077986], [-89.07542635216556, 42.28099655828792], [-89.07538874487307, 42.281008795594474], [-89.07535112915909, 42.28102355724809], [-89.07531343537974, 42.28104073364965], [-89.0752759510511, 42.28104795111945], [-89.07523846719577, 42.281055140672194], [-89.07520082104307, 42.281067377546975], [-89.07516328712799, 42.281079643386946], [-89.07512575797818, 42.28108938482042], [-89.0750881493618, 42.28110162201534], [-89.0750668682513, 42.281109981283834], [-89.07505053473622, 42.281116383580205], [-89.07500997264792, 42.28112848369777], [-89.0749719986344, 42.28113835769122], [-89.07493442679197, 42.2811505681766], [-89.0748968116204, 42.281165357594844], [-89.07485919691325, 42.281180119095815], [-89.07482154459522, 42.28119488112655], [-89.0747839298533, 42.28120964260233], [-89.07474640057006, 42.28121938390985], [-89.07470887851181, 42.281226599934115], [-89.07452706607609, 42.281290810024856], [-89.07448948709376, 42.2813055996534], [-89.07445187822913, 42.281317836636276], [-89.07441421971566, 42.28133512291289], [-89.07437664839735, 42.281347360228594], [-89.07433899540307, 42.281362149102534], [-89.07430137922374, 42.28137691130574], [-89.07426380785937, 42.281389148583855], [-89.07422619239246, 42.28140393777804], [-89.07418858388633, 42.28141614766854], [-89.0741510119953, 42.28142841281376], [-89.07411339526703, 42.281443201958716], [-89.0740881702909, 42.28145308728878], [-89.0740757426376, 42.28145796283992], [-89.07403817116706, 42.281470200943005], [-89.0739805521861, 42.28149846509892], [-89.07393257638088, 42.28151614626882], [-89.07389568796766, 42.28152940547124], [-89.07384816148746, 42.281542481355054], [-89.07383360398843, 42.28155301747107], [-89.07379011762431, 42.28157392482383], [-89.07374197950789, 42.281585979296636], [-89.07369386271482, 42.2816118094318], [-89.07364959718461, 42.281628620145085], [-89.07360728869845, 42.28164759040746], [-89.07356048518908, 42.281667999698314], [-89.07348591008004, 42.281704416233126], [-89.07340528545531, 42.281738141669045], [-89.0733411306654, 42.281761732757566], [-89.07327717958236, 42.28178433812405], [-89.0732230652671, 42.2818064889702], [-89.07317751736142, 42.28182691007629], [-89.07314059730687, 42.28184197923439], [-89.0730876816682, 42.281863235745895], [-89.07304458708447, 42.28188277449405], [-89.07301521561826, 42.281897340310486], [-89.07297172828373, 42.28191827435027], [-89.07292833345403, 42.28193385877752], [-89.07288490102482, 42.28194944282962], [-89.0728415056857, 42.281965054227925], [-89.07279090543656, 42.281980569872225], [-89.07274751052064, 42.281996154229866], [-89.07270411437139, 42.28201173855923], [-89.07265438952061, 42.28202794852218], [-89.07259157746199, 42.282057287805145], [-89.07254359021202, 42.282077685384166], [-89.07250017457356, 42.28209656184404], [-89.07245580813333, 42.28211699393467], [-89.07241152625639, 42.282134709712054], [-89.0723532611701, 42.28218313628084], [-89.07229152103076, 42.28221882463366], [-89.07223501595256, 42.28222747831696], [-89.0721885712969, 42.28222703503914], [-89.07214664987977, 42.28224930084716], [-89.07209693210213, 42.28226718429064], [-89.07203794968953, 42.28228657100394], [-89.07199373073968, 42.28230063830726], [-89.07194196944971, 42.28232555421862], [-89.07189519626773, 42.282344151712834], [-89.07185710482649, 42.28235646606039], [-89.07181765183111, 42.28237697272175], [-89.07176961085, 42.2823982742623], [-89.07172277985998, 42.28242230443884], [-89.07168337550534, 42.28244006740636], [-89.0716230102959, 42.28246668540773], [-89.07159095799025, 42.28248451765007], [-89.07154622003, 42.28250074684336], [-89.0715006033567, 42.28252297802372], [-89.07145145865782, 42.28253974128492], [-89.07139865213162, 42.28255463203932], [-89.07136045021268, 42.28257331118052], [-89.07131974033658, 42.282593777754585], [-89.07128024500953, 42.282620978448975], [-89.07123684929041, 42.282636562223765], [-89.07118698059577, 42.28263968072473], [-89.07115011242831, 42.282662406776915], [-89.07110667908631, 42.282677989242465], [-89.07104881682068, 42.282698813119836], [-89.07100542146048, 42.28271436980105], [-89.07094755961259, 42.28273516572175], [-89.07088143900015, 42.282761261980696], [-89.07085175636111, 42.2827809280605], [-89.07081119361285, 42.282795056853224], [-89.07075575895874, 42.282820815812585], [-89.07071157028142, 42.28283309851543], [-89.07067949565351, 42.282850024586786], [-89.0705923114793, 42.282888844051385], [-89.0705354291419, 42.282914945584366], [-89.07048549235192, 42.28293477537878], [-89.07043211149748, 42.28295709576496], [-89.07038570597358, 42.28296933014009], [-89.0703375281105, 42.28298791356584], [-89.07028403677757, 42.28301659974078], [-89.0702168090641, 42.28304260220143], [-89.07017193475053, 42.28306881836859], [-89.07012184235916, 42.28309753696791], [-89.07007543001052, 42.283112322598775], [-89.07002721483845, 42.2831308785275], [-89.06996869817819, 42.283153177490426], [-89.06991531696035, 42.28317549763094], [-89.06986533599115, 42.28319785116919], [-89.069771765605, 42.283240477507476], [-89.06971672848776, 42.28326025727715], [-89.06962018678067, 42.283303760767865], [-89.06955461410304, 42.28333867002317], [-89.069504500534, 42.28336865036686], [-89.06945610885144, 42.283397357035625], [-89.06941814216282, 42.283417299994504], [-89.06937845398254, 42.28343848958711], [-89.06932119298598, 42.28345868723123], [-89.06927979027898, 42.283478624271964], [-89.06922815237746, 42.283498409326455], [-89.06919115602751, 42.283522094135044], [-89.06918319667255, 42.283527176671406], [-89.0691399616591, 42.2835546703391], [-89.06909681591743, 42.28357708895978], [-89.06904495810386, 42.28360960385258], [-89.06900502724304, 42.28364475822803], [-89.06896831278787, 42.283681946543425], [-89.06891752495324, 42.28370813261608], [-89.06887394260755, 42.283734388547394], [-89.06883023144147, 42.28376596669559], [-89.0687937604712, 42.28379764115421], [-89.06874287956272, 42.283829177633635], [-89.06869190617452, 42.2838660366715], [-89.06863382127723, 42.283897477114756], [-89.06858297657632, 42.28392901386904], [-89.06854637656346, 42.28396601137893], [-89.0684954958813, 42.283997519840035], [-89.06844461586047, 42.28402905709418], [-89.06839373507714, 42.28406056550861], [-89.06835015178736, 42.28408684913851], [-89.06826276308792, 42.28415003234383], [-89.06821917897047, 42.28417628710581], [-89.06818267155883, 42.28420793400872], [-89.0681389956189, 42.28423953923583], [-89.06810248766129, 42.28427121311645], [-89.06805169898199, 42.284297399693415], [-89.06800802338412, 42.28432897786422], [-89.06796458765427, 42.28434458701742], [-89.06791379885956, 42.28437077353163], [-89.06787021565812, 42.28439702816816], [-89.06781942678259, 42.28442321463936], [-89.06776854488719, 42.28445475067154], [-89.06772496108292, 42.284481033155714], [-89.0676811926794, 42.284517933777046], [-89.0676374791649, 42.28454951144145], [-89.06760100835702, 42.284581185515854], [-89.06754486158614, 42.284620053434985], [-89.06747203921893, 42.28467646045222], [-89.06741493314715, 42.2847152632927], [-89.06736820913072, 42.28474779962131], [-89.06733850265724, 42.284792079616764], [-89.06730199397906, 42.284823753231116], [-89.06726021522624, 42.28486097436365], [-89.06722736137152, 42.2848822278266], [-89.06717010420397, 42.28491268782799], [-89.06713704501263, 42.2849479065282], [-89.06710921255019, 42.28496514775802], [-89.06706233058904, 42.285013159478176], [-89.0670033038981, 42.28506462169746], [-89.06696648336893, 42.28511629684623], [-89.06693691774544, 42.28514394867019], [-89.06688343870152, 42.28517389467721], [-89.06683690621792, 42.28519120317232], [-89.06680394179361, 42.28521879445361], [-89.06675940573008, 42.28523389922854], [-89.06671582022797, 42.2852601542984], [-89.0666793114522, 42.28529179980056], [-89.06662163096559, 42.28535721495543], [-89.06659698139437, 42.285397563944294], [-89.06656214636314, 42.28543279424805], [-89.06653934419145, 42.285466821945384], [-89.06651476041979, 42.285503383991184], [-89.06645258296909, 42.285538324024834], [-89.06641765311714, 42.28558115369346], [-89.0663622236949, 42.28562120729736], [-89.06630966492887, 42.285676820369254], [-89.06625752379222, 42.28572327148555], [-89.06622288117542, 42.285749585173704], [-89.06617924713278, 42.28579134270928], [-89.06616679527164, 42.285808182130275], [-89.0661494614119, 42.2858316702158], [-89.06610946115724, 42.28587063656146], [-89.06607647407452, 42.28589949053024], [-89.06604328780718, 42.28593978446992], [-89.06598444250234, 42.28597857079235], [-89.06590446233685, 42.28603413923459], [-89.06585068028453, 42.28607925727358], [-89.06580735395114, 42.2861118804901], [-89.06575692729601, 42.2861596109518], [-89.06572398338346, 42.28618596780389], [-89.06568229156889, 42.28623076249349], [-89.0656413953936, 42.28627449525253], [-89.06560948924205, 42.286315543200175], [-89.06556720046196, 42.2863542956143], [-89.06553018949819, 42.286382890210824], [-89.06550734274677, 42.28641302077638], [-89.0654676068921, 42.286434674894565], [-89.06544189938404, 42.28645926184662], [-89.06541673134916, 42.28649540750179], [-89.06539251300234, 42.286517264634554], [-89.06537041332308, 42.28654904899224], [-89.06534107091997, 42.28658079079351], [-89.06531897119216, 42.28661257514039], [-89.06529144165077, 42.28663783058531], [-89.06526776127942, 42.28667341430405], [-89.0652453923189, 42.286707912249994], [-89.06522325517213, 42.286739751136345], [-89.06519394993089, 42.28677143833734], [-89.06516464491573, 42.28680318045097], [-89.06513533912914, 42.28683489554054], [-89.06512916060512, 42.28684378155228], [-89.06511320236778, 42.286866706499175], [-89.06509102800266, 42.286898517092126], [-89.06506175971558, 42.286930232522415], [-89.06503965925207, 42.28696204381493], [-89.06501412663977, 42.286991462448235], [-89.06500015741408, 42.2870317489318], [-89.06498196955374, 42.28706593047451], [-89.06495692647277, 42.28709271952504], [-89.06495575836922, 42.28709399842962], [-89.06493621554456, 42.28712111491086], [-89.06491407906684, 42.287152897922596], [-89.0648919420646, 42.28718470973435], [-89.06486984191096, 42.28721649308612], [-89.06484053531145, 42.28724823509853], [-89.06482337464406, 42.28727863983042], [-89.06479847593614, 42.28730353690526], [-89.06478329780997, 42.28733678671699], [-89.0647608826035, 42.28736966538306], [-89.06474206776684, 42.28740592685128], [-89.06468345591463, 42.28746938380442], [-89.06467746724765, 42.28747585701555], [-89.06465411321975, 42.28750109751128], [-89.06463426105461, 42.28753745882809], [-89.06461729585219, 42.287575768222645], [-89.06458980177115, 42.287603191752176], [-89.06455126293284, 42.28762817734999], [-89.06452187951314, 42.2876494912871], [-89.06448716586414, 42.287688261180534], [-89.06444659464778, 42.28771533930717], [-89.06442087441984, 42.287732187838785], [-89.06440973381024, 42.2877394902041], [-89.0643819056707, 42.287762767299824], [-89.06434986844175, 42.287802688250785], [-89.06432481817197, 42.2878362545335], [-89.0643061795702, 42.28787295606583], [-89.06427904997807, 42.2879049115221], [-89.06423338478548, 42.28793163900048], [-89.06421251776659, 42.287971036192346], [-89.06417063307146, 42.28799714187367], [-89.06412888642265, 42.288019571149356], [-89.0640892228647, 42.28805604348124], [-89.06405508760407, 42.288082826831904], [-89.06403022821928, 42.28810327844175], [-89.06400142524105, 42.28812514610582], [-89.06396816822429, 42.28815454513839], [-89.0639662943157, 42.288156036918046], [-89.0639438075158, 42.288173931970526], [-89.06392094212468, 42.28820504965563], [-89.06389360111265, 42.288230059886914], [-89.06385010521784, 42.28825099034674], [-89.06380661049104, 42.28827192170148], [-89.06371958387213, 42.28831375519402], [-89.06369027737749, 42.28834549780561], [-89.06365409603318, 42.28837083438186], [-89.06365316074465, 42.288371484403385], [-89.06360952429743, 42.28844076482122], [-89.06358340981663, 42.28847385434552], [-89.06356703365124, 42.28850580323637], [-89.0635486940744, 42.288533808838], [-89.06352973816783, 42.28857385539398], [-89.06352126758846, 42.28860601717552], [-89.06350102151606, 42.288633208564654], [-89.06348597233443, 42.28866533406321], [-89.06347228874165, 42.28869549744382], [-89.06345843358493, 42.288718607138534], [-89.0634519238763, 42.2887294930328], [-89.06342631031293, 42.28876346602928], [-89.06340918036271, 42.288796285433925], [-89.06338700444964, 42.28882809566886], [-89.06335773440293, 42.2888598106333], [-89.0633284257859, 42.288891580137076], [-89.06330628833886, 42.28892333580769], [-89.06328863076281, 42.288960952305175], [-89.06326573499771, 42.28900225013015], [-89.06324196837194, 42.28903418277462], [-89.06322551480342, 42.2890684635399], [-89.06321651171545, 42.289103610960986], [-89.0631852531023, 42.28913698039737], [-89.06317023492208, 42.289152587484885], [-89.06315084967967, 42.28917267924167], [-89.06312815873007, 42.289202234623275], [-89.06309350459675, 42.28924388650713], [-89.06307075900213, 42.28927656898564], [-89.06303627351556, 42.28931696025706], [-89.06301363707051, 42.289343387604795], [-89.06298782401069, 42.2893697294552], [-89.06296188202887, 42.2894055375903], [-89.06293277997902, 42.289438158858424], [-89.06288838745678, 42.28950197140269], [-89.06284535078433, 42.289541045094104], [-89.06281840592179, 42.28957289213463], [-89.0627892764007, 42.289607077818154], [-89.0627645338963, 42.289633484840685], [-89.0627280421485, 42.28966389490766], [-89.06269592179281, 42.289689435023796], [-89.06267432946625, 42.28971743707195], [-89.06265798104343, 42.28974782137427], [-89.06264906745602, 42.28977358490417], [-89.06263901046407, 42.289805594493714], [-89.06261734834611, 42.289837519355956], [-89.06258378885565, 42.28985873765891], [-89.06254459972068, 42.289884868687885], [-89.06250924817223, 42.2899135061724], [-89.06248865845879, 42.289953865421296], [-89.06246651925079, 42.28998567582365], [-89.062444380492, 42.29001745921688], [-89.06241507135923, 42.2900492005647], [-89.06237138895617, 42.29008077647799], [-89.06234207975712, 42.29011251780605], [-89.06227745047283, 42.290185932250374], [-89.06221294213802, 42.290269279905516], [-89.06216578532413, 42.29030079526534], [-89.0621373002451, 42.290321376285426], [-89.06210100927966, 42.29034448846874], [-89.06191727138423, 42.29057366277693], [-89.06189406819209, 42.29060922245632], [-89.06185824819734, 42.290647624350825], [-89.06179493991891, 42.29071934967944], [-89.06175746914374, 42.29075076463174], [-89.0617154299612, 42.29078762466439], [-89.06167644114664, 42.290821248696695], [-89.06163739642922, 42.29085813755587], [-89.06157754181825, 42.290901384520794], [-89.06153415759255, 42.290932770318385], [-89.06149816370082, 42.29095786132343], [-89.06146671928516, 42.29098274948438], [-89.0614440105822, 42.29101323705777], [-89.06142260751189, 42.291053589166424], [-89.06138655666454, 42.29108831096924], [-89.0613697783044, 42.29111992614284], [-89.06132919734982, 42.291157897549205], [-89.06129143789431, 42.291195183103795], [-89.06125550204186, 42.29122332029683], [-89.0612267073154, 42.291265796036015], [-89.06120242500899, 42.29130172959393], [-89.06117812098742, 42.29134098323407], [-89.06116531844494, 42.291352357506], [-89.06113310455498, 42.29138107972389], [-89.06109691681277, 42.291413001088465], [-89.06107477638339, 42.29144481119994], [-89.06104546757791, 42.29147652518143], [-89.06103053230092, 42.291508404755085], [-89.06100839106395, 42.291540187836354], [-89.06098625054447, 42.291571997929005], [-89.06096414684642, 42.29160378136329], [-89.0609420062819, 42.291635591446514], [-89.06092707089797, 42.291667471904894], [-89.06090496715176, 42.29169925442636], [-89.06088458195777, 42.291727898873894], [-89.0608763333505, 42.291745189667246], [-89.06086789157419, 42.29176291704194], [-89.06085295612164, 42.291794797489196], [-89.06083802237004, 42.291826649141186], [-89.06083016263854, 42.291863921279365], [-89.06082243361489, 42.291895870318804], [-89.06081376102283, 42.29193947270959], [-89.06080703409602, 42.29198594780591], [-89.06079228560459, 42.292015662130964], [-89.06077647081572, 42.292055518823226], [-89.0607687427002, 42.29208741294851], [-89.0607581121131, 42.29214367443671], [-89.06075037561038, 42.292165442835554], [-89.06074567243063, 42.29217865165256], [-89.06074595072684, 42.292228240010985], [-89.06075253876341, 42.292257281418365], [-89.06075163191227, 42.29226690495297], [-89.06074817714453, 42.29230377932075], [-89.06074583981805, 42.29231698394602], [-89.06074292527897, 42.292333585227674], [-89.06073511770063, 42.29235941418026], [-89.06073284359721, 42.29236685661204], [-89.06073353946971, 42.29238412292252], [-89.0607344865313, 42.29240817089401], [-89.0607303144394, 42.292435379952956], [-89.06072514926346, 42.29246861592672], [-89.06070414093205, 42.29250748980726], [-89.06070600953579, 42.292544360597375], [-89.06070571765719, 42.29256104209078], [-89.06070533360935, 42.292582991234646], [-89.06069631860719, 42.292616629420024], [-89.06069521263629, 42.29262065298486], [-89.06067920012487, 42.29269930966227], [-89.06066370458286, 42.29276318033978], [-89.060663345024, 42.292764740687986], [-89.06065593851092, 42.2927951560143], [-89.06064820974811, 42.29282707803016], [-89.06063703616583, 42.292867857253114], [-89.06063978998982, 42.29289634040881], [-89.06063469165525, 42.292917366289714], [-89.0606320607329, 42.29292828942715], [-89.06063027257429, 42.29297975207253], [-89.06062816719866, 42.29302404889343], [-89.06061822008857, 42.293062370428025], [-89.06061771441006, 42.29306590551888], [-89.06060920568139, 42.29312333983049], [-89.06058479023973, 42.293162592255854], [-89.06057706139221, 42.293194514263945], [-89.06057978887534, 42.293213968985654], [-89.06058208208188, 42.2932307303307], [-89.06056264947436, 42.29327883932195], [-89.0605420238936, 42.29331903309318], [-89.06051690978657, 42.293343323027266], [-89.06051658662722, 42.29336178860497], [-89.06051634943242, 42.29337534209053], [-89.06050861932547, 42.293407263180285], [-89.06050085354609, 42.29343921273473], [-89.06049312463526, 42.293471133834615], [-89.06048534563298, 42.293507995281026], [-89.06048530206088, 42.29350840629646], [-89.06047032841586, 42.29354028541449], [-89.06046259898785, 42.29357223441594], [-89.06044136726584, 42.29360270901411], [-89.060440457935, 42.2936040173762], [-89.06043269089828, 42.2936359660124], [-89.06041058618025, 42.29366774931702], [-89.06040751924596, 42.29368036980277], [-89.06040278225876, 42.293699725504176], [-89.06038776794473, 42.2937213138225], [-89.06038067799126, 42.29373148089773], [-89.06037294849263, 42.29376342989127], [-89.06035791913463, 42.29380063281225], [-89.06035735919517, 42.29383262306661], [-89.06034756929358, 42.2938534938306], [-89.06034242418767, 42.29386450343898], [-89.06033465706672, 42.29389645206618], [-89.06032692799563, 42.29392837405085], [-89.0603258075752, 42.2939923833619], [-89.06031808042489, 42.29402419462745], [-89.05972662418725, 42.29392301904552], [-89.05878172261389, 42.2937262239518], [-89.05909464405089, 42.29333132368979], [-89.05933307755367, 42.292932629627714], [-89.05936917481549, 42.29287219554708], [-89.05956796826501, 42.29253982748835], [-89.05962221236146, 42.292122724906655], [-89.05965498670012, 42.29186369537422], [-89.05964572406373, 42.2907908232733], [-89.05964441457175, 42.29063766102472], [-89.0596368066561, 42.290371381302606], [-89.05963415509036, 42.29006906459008], [-89.05947756770715, 42.28985131658284], [-89.05947565271877, 42.28966524708514], [-89.05953268313229, 42.28947510928337], [-89.05962205638151, 42.28917711112547], [-89.05962146737366, 42.289130565448204], [-89.05961971352087, 42.2889943307666], [-89.05967320649899, 42.28895552398386], [-89.06007483278474, 42.28866416134059], [-89.06158923136029, 42.287723155275586], [-89.06200082469677, 42.287467390498044], [-89.06217935680068, 42.28743195493713], [-89.06240297696169, 42.287297122848045], [-89.06300193085973, 42.28694642872571], [-89.06405382044983, 42.28622502148019], [-89.0646983538882, 42.285603309483236], [-89.06503826313184, 42.28527541507827], [-89.06511381374528, 42.285202599077266], [-89.06548747500082, 42.2848420432953], [-89.06570776829928, 42.28463796136567], [-89.0659347593295, 42.28443796762965], [-89.0661683113834, 42.28424218317645], [-89.06640828171341, 42.284050728137004], [-89.0666545264756, 42.28386371632982], [-89.06726869178084, 42.28342769365286], [-89.06753360724541, 42.283242946721955], [-89.06780495210003, 42.28306341859327], [-89.06808254110837, 42.282889234389216], [-89.06836618187752, 42.28272051286229], [-89.06865567966003, 42.28255736914221], [-89.06895083611025, 42.28239991652469], [-89.06925144815017, 42.28224826195928], [-89.06955730908777, 42.28210251146202], [-89.06986820872615, 42.281962763814455], [-89.07018393449754, 42.28182911507621], [-89.07050426784198, 42.281701657650075], [-89.07082898908727, 42.28158047852838], [-89.07115787620528, 42.281465661081654], [-89.07123130142887, 42.281440183616425], [-89.07135670023672, 42.28139667979251], [-89.07152678610716, 42.28133765920863], [-89.0716138559439, 42.28130745469015], [-89.07170545944447, 42.28127567465736], [-89.07173230198069, 42.28126635357922], [-89.07229000734839, 42.28105291637074], [-89.07234384630155, 42.281033837855986], [-89.07241233572198, 42.28100957474755], [-89.07248405901935, 42.28098416216258], [-89.07256102376532, 42.280956907112795], [-89.07263125978942, 42.28093202942761], [-89.07270718378146, 42.28090514787739], [-89.07279133970111, 42.28088948600691], [-89.0728582264361, 42.280861694374444], [-89.0729293191872, 42.280832132317364], [-89.07300007567278, 42.28080273176362], [-89.07307116780994, 42.28077319752144], [-89.07314006473192, 42.280744547102074], [-89.07320925805138, 42.280715789630776], [-89.07328597094535, 42.28068392125692], [-89.07335226142516, 42.28065637123152], [-89.07342004040558, 42.28062820424849], [-89.07349325384858, 42.28059775635609], [-89.07356073577968, 42.280569723303074], [-89.07363700013875, 42.28053804218098], [-89.07370403542343, 42.280510170440856], [-89.07377624339655, 42.28048015122912], [-89.07384472906507, 42.280451689128164], [-89.07391608172419, 42.28042204700489], [-89.07398873646763, 42.28039184015206], [-89.0740564768423, 42.28036369943144], [-89.0740528721986, 42.28035845145178], [-89.0741222055951, 42.280323713170745], [-89.07445449879579, 42.28019908469639], [-89.07467450295768, 42.28009083922418], [-89.07482093494677, 42.28001882853039], [-89.07496639899908, 42.27994724687903], [-89.07496993758197, 42.27994557990081], [-89.07523594842381, 42.27981581751548], [-89.07540724744406, 42.27972889520154], [-89.07553156689927, 42.279664109636364], [-89.07583143170214, 42.279501739519624], [-89.07603799102607, 42.27938462790487], [-89.07624166559417, 42.279264762375526], [-89.07620677410168, 42.27923311996441], [-89.07649356328197, 42.27906162255892], [-89.07670571467503, 42.27893474782118], [-89.07677646778447, 42.27889033418897], [-89.0769371389001, 42.27878945114024], [-89.07703213699567, 42.27872979068926], [-89.07703800188368, 42.2787260867656], [-89.07725980188687, 42.2785709567309], [-89.07726574777409, 42.27856684212792], [-89.07752573341544, 42.27838718463956], [-89.0778128692677, 42.27818871240054], [-89.0778147768135, 42.27818741337434], [-89.07809798831843, 42.27798925966704], [-89.07822218296891, 42.27775315458407], [-89.07827202643595, 42.27769328416191], [-89.07834160401416, 42.27760967283367], [-89.07843876377156, 42.27749289957402], [-89.07870660324744, 42.277388941797334], [-89.07880904451957, 42.27727658117949], [-89.07890797421449, 42.27710623213846], [-89.0789579326837, 42.27702029340947], [-89.07899144510093, 42.276962463591964], [-89.0790655454402, 42.27684352281541], [-89.07919544318887, 42.27665788031882], [-89.07928644982896, 42.276529192811665], [-89.07940463358794, 42.27642299131915], [-89.07948888982234, 42.27634731144154], [-89.07947324752098, 42.27427801351992], [-89.07946791928774, 42.27356904649132], [-89.07946537933985, 42.27323533676103], [-89.07946176290345, 42.272757825266375], [-89.07946098058146, 42.27265502330434], [-89.07946090277245, 42.27264445753663], [-89.07945958240983, 42.27246336031112], [-89.07945894119693, 42.272348046400175], [-89.07945781972558, 42.272129494032825], [-89.07945711386495, 42.2719921986558], [-89.07945611226477, 42.271801088584496], [-89.07945538385817, 42.27166933613913], [-89.07945460724717, 42.2715210636111], [-89.07947527081556, 42.271339928090185], [-89.07947341907872, 42.27110369675321], [-89.07947249199194, 42.27098780301264], [-89.07947156687318, 42.270867492411384], [-89.07947030300183, 42.270706729868124], [-89.07946916378324, 42.27056015544749], [-89.07946784589136, 42.27039393115694], [-89.07946645149036, 42.27021283316089], [-89.07946477259527, 42.26999877603596], [-89.07946391498211, 42.269891746398066], [-89.07946307343, 42.26978589810575], [-89.07946202900277, 42.269648901065615], [-89.07946083511365, 42.26949908861707], [-89.07945977460567, 42.269360911122796], [-89.0736468160503, 42.26938218711222], [-89.07340298542128, 42.269383238057664], [-89.07340998357247, 42.27023324209946], [-89.0725167679023, 42.27023613905652], [-89.07251435845976, 42.269811490897325], [-89.07236511663164, 42.26981220687016], [-89.07236270484694, 42.26938775042134], [-89.07236064593104, 42.269206649609686], [-89.07340149684676, 42.26920213909458], [-89.07945907347295, 42.26918242694046], [-89.07945726417421, 42.268877071680215], [-89.07945637544209, 42.2687267120211], [-89.07946654906759, 42.2682422239213], [-89.07946523043404, 42.268002895976345], [-89.07946430373748, 42.267841834951035], [-89.07946388678344, 42.26775648871343], [-89.07946337229971, 42.267657420954045], [-89.07946238611525, 42.26748261084972], [-89.07946173270754, 42.26735939297852], [-89.07945980562121, 42.26700071794226], [-89.07940618820382, 42.26659498471381], [-89.07941023850152, 42.26635930250976], [-89.07941075292226, 42.26632936875197], [-89.07941243572876, 42.266231447178285], [-89.07941965477445, 42.266198311591005], [-89.07939172796334, 42.266125026039845], [-89.07938487069063, 42.26607257516408], [-89.07934038936429, 42.26604032144999], [-89.07929008336967, 42.26602453302762], [-89.07913700824817, 42.26598441620815], [-89.07889353011205, 42.265920610954204], [-89.07878948103304, 42.26589333514303], [-89.07872271168803, 42.265859553514005], [-89.07873164586172, 42.26553552960677], [-89.07873502001374, 42.26489458806377], [-89.0787359535618, 42.26471348497097], [-89.07874074042819, 42.26380560906136], [-89.07874167341437, 42.26362453293892], [-89.07874293892577, 42.26338767183977], [-89.07874336201705, 42.263305049718454], [-89.07874408056756, 42.26316872827135], [-89.07874491857606, 42.26301037305674], [-89.07874648591037, 42.26271295236113], [-89.07874742049029, 42.262531848310935], [-89.0787487363581, 42.2622833800473], [-89.07874982098411, 42.2620763459975], [-89.07875054511584, 42.26193969506432], [-89.07875222258671, 42.26162084365943], [-89.0787531558415, 42.26143974046351], [-89.07875459599266, 42.26116690484427], [-89.07875554409927, 42.260985005907855], [-89.07875633935453, 42.260833427706984], [-89.07875793102718, 42.260530272204896], [-89.0787588654116, 42.260349168085945], [-89.07876053986539, 42.26003470734291], [-89.07876217793188, 42.25972024533764], [-89.07876993184519, 42.25958300291562], [-89.07877145870945, 42.25941677829057], [-89.07876801153442, 42.25888240865046], [-89.07876935685722, 42.25869889376684], [-89.07877007086675, 42.25861435399353], [-89.07877064670343, 42.2585486382426], [-89.07877717430377, 42.257810062782724], [-89.07878038063475, 42.25744298291639], [-89.07878197995204, 42.25726188591064], [-89.07902575600274, 42.25726128926682], [-89.07939313664828, 42.25726043706291], [-89.07963802024128, 42.25725984961762], [-89.07988294092527, 42.25725928991015], [-89.08012786209491, 42.257258701774674], [-89.0807450772906, 42.257257248202144], [-89.0807474372667, 42.25707662471157], [-89.08074983431885, 42.2568960285756], [-89.0807522313311, 42.25671543333399], [-89.08075462881318, 42.25653480928153], [-89.08075702456486, 42.25635421401681], [-89.08075942999845, 42.256173123671346], [-89.08076170207582, 42.256001993914424], [-89.08076397291954, 42.25583086414079], [-89.0807673795182, 42.25557418297868], [-89.08076851575292, 42.25548860458939], [-89.08077078606752, 42.25531750180482], [-89.08077319182378, 42.25513638442118], [-89.08077548138266, 42.25496415732942], [-89.08077777214639, 42.25479192934367], [-89.08077891606116, 42.25470582973986], [-89.08078006166079, 42.25461970224135], [-89.08078235115293, 42.25444747513372], [-89.08078464184997, 42.25427524713212], [-89.0807866394675, 42.25412433914242], [-89.08079185917212, 42.253729672918375], [-89.08079247990048, 42.25368275406514], [-89.08079475186999, 42.25351585026011], [-89.08079727796589, 42.25332120509508], [-89.08079866115028, 42.253216914395914], [-89.08034744041362, 42.253220845624156], [-89.08035272631595, 42.25282889620914], [-89.08035287634107, 42.25281591794962], [-89.0796753895956, 42.25282146362387], [-89.07944956043882, 42.25282330138663], [-89.07922376882392, 42.25282513996084], [-89.07899745815466, 42.25282700017667], [-89.07899779070807, 42.25278931121126], [-89.07899822502468, 42.25273998768416], [-89.0788217188036, 42.2527384818991], [-89.07844555597825, 42.252738178531814], [-89.07798962975784, 42.252737785696674], [-89.07797319493378, 42.252737771929084], [-89.07773648486126, 42.2527375673713], [-89.07773754220968, 42.25265673463194], [-89.07710836487003, 42.252656220039086], [-89.07686455894655, 42.25265747048098], [-89.07686385257209, 42.25277782177739], [-89.07618276986938, 42.25278199459748], [-89.07610886647943, 42.25277911671644], [-89.07610869050922, 42.252811064121516], [-89.0754276460007, 42.25281517789963], [-89.07518338863797, 42.252815584987744], [-89.07518120204863, 42.25338484688583], [-89.07450718054689, 42.2533861959708], [-89.07450890019882, 42.25284694577596], [-89.07443573911029, 42.25284698006586], [-89.07426290445153, 42.25284731003944], [-89.07409317209978, 42.25284764139849], [-89.07376139069123, 42.252848293755314], [-89.07351766771268, 42.25284034576854], [-89.07283244917743, 42.25284445926169], [-89.07276978941377, 42.25284130023825], [-89.07209102904787, 42.25284539797627], [-89.07209173574718, 42.2525118836404], [-89.07209469721671, 42.25242128733905], [-89.07209305862385, 42.25233075606853], [-89.07209628855128, 42.252056373426825], [-89.07279983805377, 42.25205123185322], [-89.07322651052255, 42.25204811090337], [-89.07322691597793, 42.25200969700704], [-89.07352414667061, 42.252007536562836], [-89.07376777048258, 42.2520166908927], [-89.07420286831977, 42.25201337290747], [-89.07434280442247, 42.25201226331811], [-89.07439494879821, 42.252012799579184], [-89.07439670071156, 42.25187496624715], [-89.07460342382427, 42.25187344986234], [-89.07460130611824, 42.25203693657301], [-89.07502846091086, 42.25203366495965], [-89.07502792280974, 42.252075617596375], [-89.07519031752555, 42.25207439213721], [-89.07543405935698, 42.252072512627784], [-89.07559745172549, 42.252071268175314], [-89.0757728353916, 42.252070011512046], [-89.07584322423551, 42.25206940801567], [-89.07587521355889, 42.252069164896646], [-89.07593325095621, 42.25206872746128], [-89.07597423933672, 42.25206841505049], [-89.07601500227547, 42.25206810498259], [-89.07606709031393, 42.25206769462847], [-89.07622191283274, 42.2520665055358], [-89.07646022294024, 42.25206470994452], [-89.07654215963716, 42.25206408885219], [-89.07670599545366, 42.25206284703503], [-89.07678789457324, 42.252062226310244], [-89.07686916608091, 42.25206159866264], [-89.07711296640865, 42.25206053991769], [-89.07719375714761, 42.25205996329129], [-89.07772271920864, 42.25205620556008], [-89.07772292706831, 42.2520355995777], [-89.07780006013525, 42.25203504181175], [-89.0777993871992, 42.2521084687092], [-89.07795908688374, 42.2521072407493], [-89.07796061583306, 42.251939434115236], [-89.07796212459014, 42.25177385733754], [-89.07800896487682, 42.251773534029454], [-89.0786857158216, 42.25176869433564], [-89.07883796159372, 42.25176762491336], [-89.07883735980053, 42.251957279936214], [-89.07883732965726, 42.251966790461076], [-89.07908109508342, 42.25196223942162], [-89.07908080073219, 42.25191264968943], [-89.07934837955054, 42.251910642192705], [-89.0795396141077, 42.25190920683898], [-89.0795401586924, 42.25172480633867], [-89.07969158037666, 42.251723662248594], [-89.079693138812, 42.251170459994384], [-89.08081318389253, 42.25116243762845], [-89.08081363114997, 42.2509813015729], [-89.08105740189853, 42.25097960303821], [-89.08166729274645, 42.25097522107685], [-89.0819499996285, 42.25097320297228], [-89.08227714553932, 42.25097086342063], [-89.08252091767615, 42.25096907985952], [-89.08310435770137, 42.25096493446864], [-89.08315603802146, 42.25096457195819], [-89.08333324285687, 42.250963282215835], [-89.08373944141, 42.250960368070615], [-89.08398325016621, 42.25095863576423], [-89.08435601807517, 42.25095595301027], [-89.08456635817099, 42.25095447979868], [-89.08461803821484, 42.25095406170802], [-89.08520122057286, 42.250949876205866], [-89.08544499221433, 42.25094811343179], [-89.08603016813726, 42.250943914598494], [-89.08608199626812, 42.250943552161864], [-89.08643481652048, 42.2509410033057], [-89.08691153927536, 42.250937343108816], [-89.08730607709572, 42.2509338122728], [-89.08745380749296, 42.25093248633958], [-89.08751291391748, 42.25093197207262], [-89.08768716899216, 42.25093040116047], [-89.08786138604329, 42.250928856634914], [-89.08803560355156, 42.25092728483976], [-89.08820982105667, 42.25092571277985], [-89.08838403688696, 42.25092416744858], [-89.0885132966127, 42.250922995094705], [-89.08855829194594, 42.25092259521221], [-89.08873250944158, 42.25092102235793], [-89.08890672647428, 42.250919476243666], [-89.08908098031219, 42.25091790320135], [-89.08925519733872, 42.2509163565575], [-89.08932656952706, 42.25091570990345], [-89.08947441015083, 42.25091438240196], [-89.08958682397335, 42.250913380119485], [-89.0899560931974, 42.250910041293835], [-89.0901806251951, 42.25090803289893], [-89.09073460362202, 42.250903050854994], [-89.09097838216273, 42.25090086494085], [-89.0911707746453, 42.25089912934212], [-89.09135540996606, 42.25089748544311], [-89.09154008209055, 42.25089581458264], [-89.09172471666656, 42.25089414217244], [-89.09190938832535, 42.25089249772186], [-89.0920940228789, 42.25089082561701], [-89.09227869454598, 42.2508891796713], [-89.09246332909237, 42.250887506971615], [-89.09264800121062, 42.25088583342614], [-89.09415843734702, 42.250872225847154], [-89.0953637722175, 42.250861373826986], [-89.0956075511125, 42.25085915016339], [-89.09581346281922, 42.25085731425742], [-89.09601505418374, 42.250855491666826], [-89.09621660798372, 42.25085366837112], [-89.09641819933957, 42.25085184507153], [-89.0966197906911, 42.250850021417435], [-89.09679888979456, 42.25084804340409], [-89.09719772493838, 42.25084372274672], [-89.09759655958497, 42.25083942860666], [-89.09779593920382, 42.25083725275548], [-89.09803979397702, 42.25083052490453], [-89.09914773728443, 42.25082122211141], [-89.09945734307836, 42.25081861534659], [-89.10229602832545, 42.25090857816492], [-89.10452320754301, 42.251262666278265], [-89.10419801871316, 42.252173780276806], [-89.10502072086938, 42.25223941022894], [-89.10487141341395, 42.252239948321], [-89.10461348447055, 42.25260310618819], [-89.10458556532504, 42.25264236290193], [-89.10432763352085, 42.25300549305916], [-89.10418958248044, 42.25318694628213], [-89.10419466697864, 42.253544196380744], [-89.1041952968441, 42.25358810916239], [-89.10413634051018, 42.253588275994275], [-89.10407631425224, 42.253588433782866], [-89.10389124809198, 42.253588940868966], [-89.10370621948168, 42.25358944890467], [-89.10370879825844, 42.253770146791794], [-89.1034988713347, 42.253770725317764], [-89.1035024129827, 42.253951349301104], [-89.10335774299742, 42.25413287787042], [-89.10336139497419, 42.25431347495981], [-89.1033458783215, 42.25431360568616], [-89.10334709771578, 42.25440376175848], [-89.1033484264524, 42.25449397376177], [-89.1029839076825, 42.254494737539005], [-89.10298647408014, 42.25467612042738], [-89.10277794961489, 42.25467657378875], [-89.10277892409738, 42.254858107563145], [-89.10264049678221, 42.25503944551941], [-89.10264221278256, 42.255161492265316], [-89.10264387180013, 42.25527813395439], [-89.10264559589757, 42.25539746455303], [-89.10258512629656, 42.255397507606986], [-89.1023415875986, 42.25539760737625], [-89.1023431493666, 42.255506810749445], [-89.10234471280197, 42.25561598712698], [-89.1023480505155, 42.25584803455658], [-89.10229029868901, 42.256029105195935], [-89.10225551360655, 42.256162393760825], [-89.10221990118055, 42.25629874827041], [-89.10216083334134, 42.256525084698936], [-89.1022314621756, 42.256536003733835], [-89.10220176395802, 42.25664351786834], [-89.10215326552697, 42.256819021292465], [-89.10208514119714, 42.257065470111094], [-89.10204498057979, 42.257221787073874], [-89.10193601601895, 42.25762531527259], [-89.10210945158862, 42.257651567567244], [-89.10225178878875, 42.25767314108472], [-89.10222002960768, 42.257782391665806], [-89.10219901085955, 42.25785480606824], [-89.10217407323418, 42.257940658035494], [-89.10213796285787, 42.258064824044595], [-89.10186512135868, 42.25802752315213], [-89.10181054183097, 42.25821526357035], [-89.101774270729, 42.25834014190578], [-89.10173180487784, 42.25848628369241], [-89.10168462465883, 42.258651344774016], [-89.10156233426467, 42.25865234908891], [-89.10140014108943, 42.25865372447695], [-89.10139167532856, 42.25876382228762], [-89.10138260541756, 42.25888129697253], [-89.10149753797184, 42.25888730359708], [-89.10144072737984, 42.25909335416562], [-89.10138584476125, 42.259292342620675], [-89.10137994146355, 42.25931385635466], [-89.10144637162448, 42.25931323909643], [-89.10138558716727, 42.259533714284316], [-89.10153566621756, 42.259532281327665]]]]}, "properties": {"name": "River Edge Redevelopment Zone"}}]}